{"type":"FeatureCollection","features":[{"type":"Feature","geometry":{"type":"Point","coordinates":[22.438987,39.659325]},"properties":{"name":"Νέα Σμύρνη Αφετηρία","band":0,"modes":"bus","arr":["1"],"off":[0,-0.8]}},{"type":"Feature","geometry":{"type":"Point","coordinates":[22.438987,39.659325]},"properties":{"line":"1","mode":"bus","color":"#0059a9","colorDark":"#00294f","band":0,"off":[0,1.1]}},{"type":"Feature","geometry":{"type":"Point","coordinates":[22.41871,39.645171]},"properties":{"name":"Ωδείο","band":0,"modes":"bus","arr":["1","2","4","6","8","11","12","16"],"off":[0,-0.8]}},{"type":"Feature","geometry":{"type":"Point","coordinates":[22.41871,39.645171]},"properties":{"name":"Μουσείο","band":0,"modes":"bus","arr":["1","2","4","6","8","11","12","16"],"off":[0,-1.9]}},{"type":"Feature","geometry":{"type":"Point","coordinates":[22.41871,39.645171]},"properties":{"name":"Κεντρική Πλατεία Γρ. 1,2","band":0,"modes":"bus","arr":["1","2","4","6","8","11","12","16"],"off":[0,-3]}},{"type":"Feature","geometry":{"type":"Point","coordinates":[22.41871,39.645171]},"properties":{"line":"1","mode":"bus","color":"#0059a9","colorDark":"#00294f","band":0,"off":[-6.8,1.1]}},{"type":"Feature","geometry":{"type":"Point","coordinates":[22.41871,39.645171]},"properties":{"line":"2","mode":"bus","color":"#0059a9","colorDark":"#00294f","band":0,"off":[-3.4,1.1]}},{"type":"Feature","geometry":{"type":"Point","coordinates":[22.41871,39.645171]},"properties":{"line":"4","mode":"bus","color":"#0059a9","colorDark":"#00294f","band":0,"off":[0,1.1]}},{"type":"Feature","geometry":{"type":"Point","coordinates":[22.41871,39.645171]},"properties":{"line":"6","mode":"bus","color":"#0059a9","colorDark":"#00294f","band":0,"off":[3.4,1.1]}},{"type":"Feature","geometry":{"type":"Point","coordinates":[22.41871,39.645171]},"properties":{"line":"8","mode":"bus","color":"#0059a9","colorDark":"#00294f","band":0,"off":[6.8,1.1]}},{"type":"Feature","geometry":{"type":"Point","coordinates":[22.41871,39.645171]},"properties":{"line":"11","mode":"bus","color":"#0059a9","colorDark":"#00294f","band":0,"off":[-3.4,3.1]}},{"type":"Feature","geometry":{"type":"Point","coordinates":[22.41871,39.645171]},"properties":{"line":"12","mode":"bus","color":"#0059a9","colorDark":"#00294f","band":0,"off":[0,3.1]}},{"type":"Feature","geometry":{"type":"Point","coordinates":[22.41871,39.645171]},"properties":{"line":"16","mode":"bus","color":"#0059a9","colorDark":"#00294f","band":0,"off":[3.4,3.1]}},{"type":"Feature","geometry":{"type":"Point","coordinates":[22.39798,39.624]},"properties":{"name":"Πλατεία Νεάπολης - Κωνσταντινίδης","band":0,"modes":"bus","arr":["1","13"],"off":[0,-0.8]}},{"type":"Feature","geometry":{"type":"Point","coordinates":[22.39798,39.624]},"properties":{"name":"Πλατεία Λιβαδάκι","band":0,"modes":"bus","arr":["1","13"],"off":[0,-3]}},{"type":"Feature","geometry":{"type":"Point","coordinates":[22.39798,39.624]},"properties":{"name":"Εργατικές Κατοικίες Νεάπολης","band":0,"modes":"bus","arr":["1","13"],"off":[0,-4.1]}},{"type":"Feature","geometry":{"type":"Point","coordinates":[22.39798,39.624]},"properties":{"line":"1","mode":"bus","color":"#0059a9","colorDark":"#00294f","band":0,"off":[-1.7,1.1]}},{"type":"Feature","geometry":{"type":"Point","coordinates":[22.39798,39.624]},"properties":{"line":"13","mode":"bus","color":"#0059a9","colorDark":"#00294f","band":0,"off":[1.7,1.1]}},{"type":"Feature","geometry":{"type":"Point","coordinates":[22.461974,39.628903]},"properties":{"name":"Τέρμα Βόλου","band":0,"modes":"bus","arr":["2"],"off":[0,-0.8]}},{"type":"Feature","geometry":{"type":"Point","coordinates":[22.461974,39.628903]},"properties":{"line":"2","mode":"bus","color":"#0059a9","colorDark":"#00294f","band":0,"off":[0,1.1]}},{"type":"Feature","geometry":{"type":"Point","coordinates":[22.500294,39.631083]},"properties":{"name":"Μελισσοχώρι Πλατεία","band":0,"modes":"bus","arr":["2"],"off":[0,-0.8]}},{"type":"Feature","geometry":{"type":"Point","coordinates":[22.500294,39.631083]},"properties":{"line":"2","mode":"bus","color":"#0059a9","colorDark":"#00294f","band":0,"off":[0,1.1]}},{"type":"Feature","geometry":{"type":"Point","coordinates":[22.501499,39.619942]},"properties":{"name":"Περιφερειακός Σταθμός Νιαβης","band":0,"modes":"bus","arr":["2"],"off":[0,-0.8]}},{"type":"Feature","geometry":{"type":"Point","coordinates":[22.501499,39.619942]},"properties":{"line":"2","mode":"bus","color":"#0059a9","colorDark":"#00294f","band":0,"off":[0,1.1]}},{"type":"Feature","geometry":{"type":"Point","coordinates":[22.416121,39.632718]},"properties":{"name":"Πλατεία Εβραίων","band":0,"modes":"bus","arr":["4","5","9","11","14","15","18"],"off":[0,-0.8]}},{"type":"Feature","geometry":{"type":"Point","coordinates":[22.416121,39.632718]},"properties":{"name":"Κεντρική Πλατεία Γρ. 3,4,Β14,15","band":0,"modes":"bus","arr":["4","5","9","11","14","15","18"],"off":[0,-1.9]}},{"type":"Feature","geometry":{"type":"Point","coordinates":[22.416121,39.632718]},"properties":{"name":"Δημοτικό Ωδείο","band":0,"modes":"bus","arr":["4","5","9","11","14","15","18"],"off":[0,-4.1]}},{"type":"Feature","geometry":{"type":"Point","coordinates":[22.416121,39.632718]},"properties":{"line":"4","mode":"bus","color":"#0059a9","colorDark":"#00294f","band":0,"off":[-6.8,1.1]}},{"type":"Feature","geometry":{"type":"Point","coordinates":[22.416121,39.632718]},"properties":{"line":"5","mode":"bus","color":"#0059a9","colorDark":"#00294f","band":0,"off":[-3.4,1.1]}},{"type":"Feature","geometry":{"type":"Point","coordinates":[22.416121,39.632718]},"properties":{"line":"9","mode":"bus","color":"#0059a9","colorDark":"#00294f","band":0,"off":[0,1.1]}},{"type":"Feature","geometry":{"type":"Point","coordinates":[22.416121,39.632718]},"properties":{"line":"11","mode":"bus","color":"#0059a9","colorDark":"#00294f","band":0,"off":[3.4,1.1]}},{"type":"Feature","geometry":{"type":"Point","coordinates":[22.416121,39.632718]},"properties":{"line":"14","mode":"bus","color":"#0059a9","colorDark":"#00294f","band":0,"off":[6.8,1.1]}},{"type":"Feature","geometry":{"type":"Point","coordinates":[22.416121,39.632718]},"properties":{"line":"15","mode":"bus","color":"#0059a9","colorDark":"#00294f","band":0,"off":[-1.7,3.1]}},{"type":"Feature","geometry":{"type":"Point","coordinates":[22.416121,39.632718]},"properties":{"line":"18","mode":"bus","color":"#0059a9","colorDark":"#00294f","band":0,"off":[1.7,3.1]}},{"type":"Feature","geometry":{"type":"Point","coordinates":[22.413244,39.649989]},"properties":{"name":"Συνοικία Παπασταύρου","band":0,"modes":"bus","arr":["3"],"off":[0,-0.8]}},{"type":"Feature","geometry":{"type":"Point","coordinates":[22.413244,39.649989]},"properties":{"line":"3","mode":"bus","color":"#0059a9","colorDark":"#00294f","band":0,"off":[0,1.1]}},{"type":"Feature","geometry":{"type":"Point","coordinates":[22.436469,39.600532]},"properties":{"name":"Βιοκαρπέτ","band":0,"modes":"bus","arr":["3"],"off":[0,-0.8]}},{"type":"Feature","geometry":{"type":"Point","coordinates":[22.436469,39.600532]},"properties":{"name":"PRAKTIKER","band":0,"modes":"bus","arr":["3"],"off":[0,-1.9]}},{"type":"Feature","geometry":{"type":"Point","coordinates":[22.436469,39.600532]},"properties":{"line":"3","mode":"bus","color":"#0059a9","colorDark":"#00294f","band":0,"off":[0,1.1]}},{"type":"Feature","geometry":{"type":"Point","coordinates":[22.422191,39.627134]},"properties":{"name":"Τελωνείο - Παλιό Κοιμητήριο","band":0,"modes":"bus","arr":["60"],"off":[0,-0.8]}},{"type":"Feature","geometry":{"type":"Point","coordinates":[22.422191,39.627134]},"properties":{"line":"60","mode":"bus","color":"#0059a9","colorDark":"#00294f","band":0,"off":[0,1.1]}},{"type":"Feature","geometry":{"type":"Point","coordinates":[22.440896,39.605753]},"properties":{"name":"Fashion City Outlet","band":0,"modes":"bus","arr":["3","15"],"off":[0,-0.8]}},{"type":"Feature","geometry":{"type":"Point","coordinates":[22.440896,39.605753]},"properties":{"line":"3","mode":"bus","color":"#0059a9","colorDark":"#00294f","band":0,"off":[-1.7,1.1]}},{"type":"Feature","geometry":{"type":"Point","coordinates":[22.440896,39.605753]},"properties":{"line":"15","mode":"bus","color":"#0059a9","colorDark":"#00294f","band":0,"off":[1.7,1.1]}},{"type":"Feature","geometry":{"type":"Point","coordinates":[22.431507,39.638513]},"properties":{"name":"Παιδικός Σταθμός Καραγάτση","band":0,"modes":"bus","arr":["4"],"off":[0,-0.8]}},{"type":"Feature","geometry":{"type":"Point","coordinates":[22.431507,39.638513]},"properties":{"line":"4","mode":"bus","color":"#0059a9","colorDark":"#00294f","band":0,"off":[0,1.1]}},{"type":"Feature","geometry":{"type":"Point","coordinates":[22.386004,39.609663]},"properties":{"name":"Πανεπιστημιακό Νοσοκομείο","band":0,"modes":"bus","arr":["4"],"off":[0,-0.8]}},{"type":"Feature","geometry":{"type":"Point","coordinates":[22.386004,39.609663]},"properties":{"line":"4","mode":"bus","color":"#0059a9","colorDark":"#00294f","band":0,"off":[0,1.1]}},{"type":"Feature","geometry":{"type":"Point","coordinates":[22.399394,39.60478]},"properties":{"name":"Νέο Κοιμητήριο","band":0,"modes":"bus","arr":["4"],"off":[0,-0.8]}},{"type":"Feature","geometry":{"type":"Point","coordinates":[22.399394,39.60478]},"properties":{"line":"4","mode":"bus","color":"#0059a9","colorDark":"#00294f","band":0,"off":[0,1.1]}},{"type":"Feature","geometry":{"type":"Point","coordinates":[22.387147,39.61504]},"properties":{"name":"Βιόπολις Σχολή Επιστημών Υγείας","band":0,"modes":"bus","arr":["4"],"off":[0,-0.8]}},{"type":"Feature","geometry":{"type":"Point","coordinates":[22.387147,39.61504]},"properties":{"line":"4","mode":"bus","color":"#0059a9","colorDark":"#00294f","band":0,"off":[0,1.1]}},{"type":"Feature","geometry":{"type":"Point","coordinates":[22.414041,39.637535]},"properties":{"name":"Πλατεία Εβραίων Φαλάνη-Δασοχωρι","band":0,"modes":"bus","arr":["5","7","10","18"],"off":[0,-0.8]}},{"type":"Feature","geometry":{"type":"Point","coordinates":[22.414041,39.637535]},"properties":{"name":"Πλατεία Εβραίων Για ANIMUS","band":0,"modes":"bus","arr":["5","7","10","18"],"off":[0,-3]}},{"type":"Feature","geometry":{"type":"Point","coordinates":[22.414041,39.637535]},"properties":{"name":"Κεντρική Πλατεία Γρ. 7, 10","band":0,"modes":"bus","arr":["5","7","10","18"],"off":[0,-5.2]}},{"type":"Feature","geometry":{"type":"Point","coordinates":[22.414041,39.637535]},"properties":{"line":"5","mode":"bus","color":"#0059a9","colorDark":"#00294f","band":0,"off":[-5.1,1.1]}},{"type":"Feature","geometry":{"type":"Point","coordinates":[22.414041,39.637535]},"properties":{"line":"7","mode":"bus","color":"#0059a9","colorDark":"#00294f","band":0,"off":[-1.7,1.1]}},{"type":"Feature","geometry":{"type":"Point","coordinates":[22.414041,39.637535]},"properties":{"line":"10","mode":"bus","color":"#0059a9","colorDark":"#00294f","band":0,"off":[1.7,1.1]}},{"type":"Feature","geometry":{"type":"Point","coordinates":[22.414041,39.637535]},"properties":{"line":"18","mode":"bus","color":"#0059a9","colorDark":"#00294f","band":0,"off":[5.1,1.1]}},{"type":"Feature","geometry":{"type":"Point","coordinates":[22.395558,39.721838]},"properties":{"name":"Πλατεία Φαλάνης","band":0,"modes":"bus","arr":["5"],"off":[0,-0.8]}},{"type":"Feature","geometry":{"type":"Point","coordinates":[22.395558,39.721838]},"properties":{"line":"5","mode":"bus","color":"#0059a9","colorDark":"#00294f","band":0,"off":[0,1.1]}},{"type":"Feature","geometry":{"type":"Point","coordinates":[22.403749,39.658736]},"properties":{"name":"S/M Σκλαβενίτης Γιάννουλης","band":0,"modes":"bus","arr":["60"],"off":[0,-0.8]}},{"type":"Feature","geometry":{"type":"Point","coordinates":[22.403749,39.658736]},"properties":{"line":"60","mode":"bus","color":"#0059a9","colorDark":"#00294f","band":0,"off":[0,1.1]}},{"type":"Feature","geometry":{"type":"Point","coordinates":[22.479966,39.676228]},"properties":{"name":"Ομορφοχώρι 3η Στάση","band":0,"modes":"bus","arr":["6"],"off":[0,-0.8]}},{"type":"Feature","geometry":{"type":"Point","coordinates":[22.479966,39.676228]},"properties":{"line":"6","mode":"bus","color":"#0059a9","colorDark":"#00294f","band":0,"off":[0,1.1]}},{"type":"Feature","geometry":{"type":"Point","coordinates":[22.393943,39.665313]},"properties":{"name":"ΕΛΤΑ Γιάννουλης","band":0,"modes":"bus","arr":["7"],"off":[0,-0.8]}},{"type":"Feature","geometry":{"type":"Point","coordinates":[22.393943,39.665313]},"properties":{"line":"7","mode":"bus","color":"#0059a9","colorDark":"#00294f","band":0,"off":[0,1.1]}},{"type":"Feature","geometry":{"type":"Point","coordinates":[22.465012,39.562068]},"properties":{"name":"Πλατεία Νίκαιας","band":0,"modes":"bus","arr":["8"],"off":[0,-0.8]}},{"type":"Feature","geometry":{"type":"Point","coordinates":[22.465012,39.562068]},"properties":{"line":"8","mode":"bus","color":"#0059a9","colorDark":"#00294f","band":0,"off":[0,1.1]}},{"type":"Feature","geometry":{"type":"Point","coordinates":[22.381547,39.62772]},"properties":{"name":"Γαιόπολις","band":0,"modes":"bus","arr":["9","12"],"off":[0,-0.8]}},{"type":"Feature","geometry":{"type":"Point","coordinates":[22.381547,39.62772]},"properties":{"line":"9","mode":"bus","color":"#0059a9","colorDark":"#00294f","band":0,"off":[-1.7,1.1]}},{"type":"Feature","geometry":{"type":"Point","coordinates":[22.381547,39.62772]},"properties":{"line":"12","mode":"bus","color":"#0059a9","colorDark":"#00294f","band":0,"off":[1.7,1.1]}},{"type":"Feature","geometry":{"type":"Point","coordinates":[22.410122,39.617175]},"properties":{"name":"Μουσικό Γυμνάσιο","band":0,"modes":"bus","arr":["10"],"off":[0,-0.8]}},{"type":"Feature","geometry":{"type":"Point","coordinates":[22.410122,39.617175]},"properties":{"line":"10","mode":"bus","color":"#0059a9","colorDark":"#00294f","band":0,"off":[0,1.1]}},{"type":"Feature","geometry":{"type":"Point","coordinates":[22.433121,39.62601]},"properties":{"name":"Πλατεία Τούμπας","band":0,"modes":"bus","arr":["11"],"off":[0,-0.8]}},{"type":"Feature","geometry":{"type":"Point","coordinates":[22.433121,39.62601]},"properties":{"line":"11","mode":"bus","color":"#0059a9","colorDark":"#00294f","band":0,"off":[0,1.1]}},{"type":"Feature","geometry":{"type":"Point","coordinates":[22.400893,39.635946]},"properties":{"name":"ΔΕΥΑΛ","band":0,"modes":"bus","arr":["11","14"],"off":[0,-0.8]}},{"type":"Feature","geometry":{"type":"Point","coordinates":[22.400893,39.635946]},"properties":{"line":"11","mode":"bus","color":"#0059a9","colorDark":"#00294f","band":0,"off":[-1.7,1.1]}},{"type":"Feature","geometry":{"type":"Point","coordinates":[22.400893,39.635946]},"properties":{"line":"14","mode":"bus","color":"#0059a9","colorDark":"#00294f","band":0,"off":[1.7,1.1]}},{"type":"Feature","geometry":{"type":"Point","coordinates":[22.487152,39.772089]},"properties":{"name":"MEDISPES","band":0,"modes":"bus","arr":["13"],"off":[0,-0.8]}},{"type":"Feature","geometry":{"type":"Point","coordinates":[22.487152,39.772089]},"properties":{"line":"13","mode":"bus","color":"#0059a9","colorDark":"#00294f","band":0,"off":[0,1.1]}},{"type":"Feature","geometry":{"type":"Point","coordinates":[22.492365,39.7616]},"properties":{"name":"Μπετινα","band":0,"modes":"bus","arr":["13","60"],"off":[0,-0.8]}},{"type":"Feature","geometry":{"type":"Point","coordinates":[22.492365,39.7616]},"properties":{"name":"Καρκανιας-Μπετινα","band":0,"modes":"bus","arr":["13","60"],"off":[0,-1.9]}},{"type":"Feature","geometry":{"type":"Point","coordinates":[22.492365,39.7616]},"properties":{"line":"13","mode":"bus","color":"#0059a9","colorDark":"#00294f","band":0,"off":[-1.7,1.1]}},{"type":"Feature","geometry":{"type":"Point","coordinates":[22.492365,39.7616]},"properties":{"line":"60","mode":"bus","color":"#0059a9","colorDark":"#00294f","band":0,"off":[1.7,1.1]}},{"type":"Feature","geometry":{"type":"Point","coordinates":[22.469864,39.581215]},"properties":{"name":"IKEA","band":0,"modes":"bus","arr":["15"],"off":[0,-0.8]}},{"type":"Feature","geometry":{"type":"Point","coordinates":[22.469864,39.581215]},"properties":{"line":"15","mode":"bus","color":"#0059a9","colorDark":"#00294f","band":0,"off":[0,1.1]}},{"type":"Feature","geometry":{"type":"Point","coordinates":[22.313438,39.629114]},"properties":{"name":"ANIMUS K.A.A.","band":0,"modes":"bus","arr":["16"],"off":[0,-0.8]}},{"type":"Feature","geometry":{"type":"Point","coordinates":[22.313438,39.629114]},"properties":{"line":"16","mode":"bus","color":"#0059a9","colorDark":"#00294f","band":0,"off":[0,1.1]}},{"type":"Feature","geometry":{"type":"Point","coordinates":[22.35114,39.619121]},"properties":{"name":"Πλατεία Τερψιθέας","band":0,"modes":"bus","arr":["18"],"off":[0,-0.8]}},{"type":"Feature","geometry":{"type":"Point","coordinates":[22.35114,39.619121]},"properties":{"line":"18","mode":"bus","color":"#0059a9","colorDark":"#00294f","band":0,"off":[0,1.1]}},{"type":"Feature","geometry":{"type":"Point","coordinates":[22.438987,39.659325]},"properties":{"name":"Νέα Σμύρνη Αφετηρία","band":1,"modes":"bus","arr":["1"],"off":[0,-0.8]}},{"type":"Feature","geometry":{"type":"Point","coordinates":[22.438987,39.659325]},"properties":{"line":"1","mode":"bus","color":"#0059a9","colorDark":"#00294f","band":1,"off":[0,1.1]}},{"type":"Feature","geometry":{"type":"Point","coordinates":[22.41871,39.643435]},"properties":{"name":"Ωδείο","band":1,"modes":"bus","arr":["1","2","4","6","8","11","12","16"],"off":[0,-0.8]}},{"type":"Feature","geometry":{"type":"Point","coordinates":[22.41871,39.643435]},"properties":{"name":"Μουσείο","band":1,"modes":"bus","arr":["1","2","4","6","8","11","12","16"],"off":[0,-1.9]}},{"type":"Feature","geometry":{"type":"Point","coordinates":[22.41871,39.643435]},"properties":{"name":"Κεντρική Πλατεία Γρ. 1,2","band":1,"modes":"bus","arr":["1","2","4","6","8","11","12","16"],"off":[0,-3]}},{"type":"Feature","geometry":{"type":"Point","coordinates":[22.41871,39.643435]},"properties":{"line":"1","mode":"bus","color":"#0059a9","colorDark":"#00294f","band":1,"off":[-6.8,1.1]}},{"type":"Feature","geometry":{"type":"Point","coordinates":[22.41871,39.643435]},"properties":{"line":"2","mode":"bus","color":"#0059a9","colorDark":"#00294f","band":1,"off":[-3.4,1.1]}},{"type":"Feature","geometry":{"type":"Point","coordinates":[22.41871,39.643435]},"properties":{"line":"4","mode":"bus","color":"#0059a9","colorDark":"#00294f","band":1,"off":[0,1.1]}},{"type":"Feature","geometry":{"type":"Point","coordinates":[22.41871,39.643435]},"properties":{"line":"6","mode":"bus","color":"#0059a9","colorDark":"#00294f","band":1,"off":[3.4,1.1]}},{"type":"Feature","geometry":{"type":"Point","coordinates":[22.41871,39.643435]},"properties":{"line":"8","mode":"bus","color":"#0059a9","colorDark":"#00294f","band":1,"off":[6.8,1.1]}},{"type":"Feature","geometry":{"type":"Point","coordinates":[22.41871,39.643435]},"properties":{"line":"11","mode":"bus","color":"#0059a9","colorDark":"#00294f","band":1,"off":[-3.4,3.1]}},{"type":"Feature","geometry":{"type":"Point","coordinates":[22.41871,39.643435]},"properties":{"line":"12","mode":"bus","color":"#0059a9","colorDark":"#00294f","band":1,"off":[0,3.1]}},{"type":"Feature","geometry":{"type":"Point","coordinates":[22.41871,39.643435]},"properties":{"line":"16","mode":"bus","color":"#0059a9","colorDark":"#00294f","band":1,"off":[3.4,3.1]}},{"type":"Feature","geometry":{"type":"Point","coordinates":[22.396543,39.624953]},"properties":{"name":"Πλατεία Νεάπολης - Κωνσταντινίδης","band":1,"modes":"bus","arr":["1"],"off":[0,-0.8]}},{"type":"Feature","geometry":{"type":"Point","coordinates":[22.396543,39.624953]},"properties":{"name":"Πλατεία Λιβαδάκι","band":1,"modes":"bus","arr":["1"],"off":[0,-3]}},{"type":"Feature","geometry":{"type":"Point","coordinates":[22.396543,39.624953]},"properties":{"line":"1","mode":"bus","color":"#0059a9","colorDark":"#00294f","band":1,"off":[0,1.1]}},{"type":"Feature","geometry":{"type":"Point","coordinates":[22.400855,39.622093]},"properties":{"name":"Εργατικές Κατοικίες Νεάπολης","band":1,"modes":"bus","arr":["13"],"off":[0,-0.8]}},{"type":"Feature","geometry":{"type":"Point","coordinates":[22.400855,39.622093]},"properties":{"line":"13","mode":"bus","color":"#0059a9","colorDark":"#00294f","band":1,"off":[0,1.1]}},{"type":"Feature","geometry":{"type":"Point","coordinates":[22.461974,39.628903]},"properties":{"name":"Τέρμα Βόλου","band":1,"modes":"bus","arr":["2"],"off":[0,-0.8]}},{"type":"Feature","geometry":{"type":"Point","coordinates":[22.461974,39.628903]},"properties":{"line":"2","mode":"bus","color":"#0059a9","colorDark":"#00294f","band":1,"off":[0,1.1]}},{"type":"Feature","geometry":{"type":"Point","coordinates":[22.500294,39.631083]},"properties":{"name":"Μελισσοχώρι Πλατεία","band":1,"modes":"bus","arr":["2"],"off":[0,-0.8]}},{"type":"Feature","geometry":{"type":"Point","coordinates":[22.500294,39.631083]},"properties":{"line":"2","mode":"bus","color":"#0059a9","colorDark":"#00294f","band":1,"off":[0,1.1]}},{"type":"Feature","geometry":{"type":"Point","coordinates":[22.501499,39.619942]},"properties":{"name":"Περιφερειακός Σταθμός Νιαβης","band":1,"modes":"bus","arr":["2"],"off":[0,-0.8]}},{"type":"Feature","geometry":{"type":"Point","coordinates":[22.501499,39.619942]},"properties":{"line":"2","mode":"bus","color":"#0059a9","colorDark":"#00294f","band":1,"off":[0,1.1]}},{"type":"Feature","geometry":{"type":"Point","coordinates":[22.416121,39.635202]},"properties":{"name":"Πλατεία Εβραίων","band":1,"modes":"bus","arr":["4","5","9","11","14","15","18"],"off":[0,-0.8]}},{"type":"Feature","geometry":{"type":"Point","coordinates":[22.416121,39.635202]},"properties":{"name":"Κεντρική Πλατεία Γρ. 3,4,Β14,15","band":1,"modes":"bus","arr":["4","5","9","11","14","15","18"],"off":[0,-1.9]}},{"type":"Feature","geometry":{"type":"Point","coordinates":[22.416121,39.635202]},"properties":{"name":"Δημοτικό Ωδείο","band":1,"modes":"bus","arr":["4","5","9","11","14","15","18"],"off":[0,-4.1]}},{"type":"Feature","geometry":{"type":"Point","coordinates":[22.416121,39.635202]},"properties":{"line":"4","mode":"bus","color":"#0059a9","colorDark":"#00294f","band":1,"off":[-6.8,1.1]}},{"type":"Feature","geometry":{"type":"Point","coordinates":[22.416121,39.635202]},"properties":{"line":"5","mode":"bus","color":"#0059a9","colorDark":"#00294f","band":1,"off":[-3.4,1.1]}},{"type":"Feature","geometry":{"type":"Point","coordinates":[22.416121,39.635202]},"properties":{"line":"9","mode":"bus","color":"#0059a9","colorDark":"#00294f","band":1,"off":[0,1.1]}},{"type":"Feature","geometry":{"type":"Point","coordinates":[22.416121,39.635202]},"properties":{"line":"11","mode":"bus","color":"#0059a9","colorDark":"#00294f","band":1,"off":[3.4,1.1]}},{"type":"Feature","geometry":{"type":"Point","coordinates":[22.416121,39.635202]},"properties":{"line":"14","mode":"bus","color":"#0059a9","colorDark":"#00294f","band":1,"off":[6.8,1.1]}},{"type":"Feature","geometry":{"type":"Point","coordinates":[22.416121,39.635202]},"properties":{"line":"15","mode":"bus","color":"#0059a9","colorDark":"#00294f","band":1,"off":[-1.7,3.1]}},{"type":"Feature","geometry":{"type":"Point","coordinates":[22.416121,39.635202]},"properties":{"line":"18","mode":"bus","color":"#0059a9","colorDark":"#00294f","band":1,"off":[1.7,3.1]}},{"type":"Feature","geometry":{"type":"Point","coordinates":[22.413244,39.648284]},"properties":{"name":"Συνοικία Παπασταύρου","band":1,"modes":"bus","arr":["3"],"off":[0,-0.8]}},{"type":"Feature","geometry":{"type":"Point","coordinates":[22.413244,39.648284]},"properties":{"line":"3","mode":"bus","color":"#0059a9","colorDark":"#00294f","band":1,"off":[0,1.1]}},{"type":"Feature","geometry":{"type":"Point","coordinates":[22.436469,39.600532]},"properties":{"name":"Βιοκαρπέτ","band":1,"modes":"bus","arr":["3"],"off":[0,-0.8]}},{"type":"Feature","geometry":{"type":"Point","coordinates":[22.436469,39.600532]},"properties":{"name":"PRAKTIKER","band":1,"modes":"bus","arr":["3"],"off":[0,-1.9]}},{"type":"Feature","geometry":{"type":"Point","coordinates":[22.436469,39.600532]},"properties":{"line":"3","mode":"bus","color":"#0059a9","colorDark":"#00294f","band":1,"off":[0,1.1]}},{"type":"Feature","geometry":{"type":"Point","coordinates":[22.422191,39.627134]},"properties":{"name":"Τελωνείο - Παλιό Κοιμητήριο","band":1,"modes":"bus","arr":["60"],"off":[0,-0.8]}},{"type":"Feature","geometry":{"type":"Point","coordinates":[22.422191,39.627134]},"properties":{"line":"60","mode":"bus","color":"#0059a9","colorDark":"#00294f","band":1,"off":[0,1.1]}},{"type":"Feature","geometry":{"type":"Point","coordinates":[22.440896,39.605753]},"properties":{"name":"Fashion City Outlet","band":1,"modes":"bus","arr":["3","15"],"off":[0,-0.8]}},{"type":"Feature","geometry":{"type":"Point","coordinates":[22.440896,39.605753]},"properties":{"line":"3","mode":"bus","color":"#0059a9","colorDark":"#00294f","band":1,"off":[-1.7,1.1]}},{"type":"Feature","geometry":{"type":"Point","coordinates":[22.440896,39.605753]},"properties":{"line":"15","mode":"bus","color":"#0059a9","colorDark":"#00294f","band":1,"off":[1.7,1.1]}},{"type":"Feature","geometry":{"type":"Point","coordinates":[22.431507,39.638513]},"properties":{"name":"Παιδικός Σταθμός Καραγάτση","band":1,"modes":"bus","arr":["4"],"off":[0,-0.8]}},{"type":"Feature","geometry":{"type":"Point","coordinates":[22.431507,39.638513]},"properties":{"line":"4","mode":"bus","color":"#0059a9","colorDark":"#00294f","band":1,"off":[0,1.1]}},{"type":"Feature","geometry":{"type":"Point","coordinates":[22.386004,39.609663]},"properties":{"name":"Πανεπιστημιακό Νοσοκομείο","band":1,"modes":"bus","arr":["4"],"off":[0,-0.8]}},{"type":"Feature","geometry":{"type":"Point","coordinates":[22.386004,39.609663]},"properties":{"line":"4","mode":"bus","color":"#0059a9","colorDark":"#00294f","band":1,"off":[0,1.1]}},{"type":"Feature","geometry":{"type":"Point","coordinates":[22.399394,39.60478]},"properties":{"name":"Νέο Κοιμητήριο","band":1,"modes":"bus","arr":["4"],"off":[0,-0.8]}},{"type":"Feature","geometry":{"type":"Point","coordinates":[22.399394,39.60478]},"properties":{"line":"4","mode":"bus","color":"#0059a9","colorDark":"#00294f","band":1,"off":[0,1.1]}},{"type":"Feature","geometry":{"type":"Point","coordinates":[22.387147,39.61504]},"properties":{"name":"Βιόπολις Σχολή Επιστημών Υγείας","band":1,"modes":"bus","arr":["4"],"off":[0,-0.8]}},{"type":"Feature","geometry":{"type":"Point","coordinates":[22.387147,39.61504]},"properties":{"line":"4","mode":"bus","color":"#0059a9","colorDark":"#00294f","band":1,"off":[0,1.1]}},{"type":"Feature","geometry":{"type":"Point","coordinates":[22.414041,39.638493]},"properties":{"name":"Πλατεία Εβραίων Φαλάνη-Δασοχωρι","band":1,"modes":"bus","arr":["5","7","10","18"],"off":[0,-0.8]}},{"type":"Feature","geometry":{"type":"Point","coordinates":[22.414041,39.638493]},"properties":{"name":"Πλατεία Εβραίων Για ANIMUS","band":1,"modes":"bus","arr":["5","7","10","18"],"off":[0,-3]}},{"type":"Feature","geometry":{"type":"Point","coordinates":[22.414041,39.638493]},"properties":{"name":"Κεντρική Πλατεία Γρ. 7, 10","band":1,"modes":"bus","arr":["5","7","10","18"],"off":[0,-5.2]}},{"type":"Feature","geometry":{"type":"Point","coordinates":[22.414041,39.638493]},"properties":{"line":"5","mode":"bus","color":"#0059a9","colorDark":"#00294f","band":1,"off":[-5.1,1.1]}},{"type":"Feature","geometry":{"type":"Point","coordinates":[22.414041,39.638493]},"properties":{"line":"7","mode":"bus","color":"#0059a9","colorDark":"#00294f","band":1,"off":[-1.7,1.1]}},{"type":"Feature","geometry":{"type":"Point","coordinates":[22.414041,39.638493]},"properties":{"line":"10","mode":"bus","color":"#0059a9","colorDark":"#00294f","band":1,"off":[1.7,1.1]}},{"type":"Feature","geometry":{"type":"Point","coordinates":[22.414041,39.638493]},"properties":{"line":"18","mode":"bus","color":"#0059a9","colorDark":"#00294f","band":1,"off":[5.1,1.1]}},{"type":"Feature","geometry":{"type":"Point","coordinates":[22.395558,39.721838]},"properties":{"name":"Πλατεία Φαλάνης","band":1,"modes":"bus","arr":["5"],"off":[0,-0.8]}},{"type":"Feature","geometry":{"type":"Point","coordinates":[22.395558,39.721838]},"properties":{"line":"5","mode":"bus","color":"#0059a9","colorDark":"#00294f","band":1,"off":[0,1.1]}},{"type":"Feature","geometry":{"type":"Point","coordinates":[22.403749,39.658736]},"properties":{"name":"S/M Σκλαβενίτης Γιάννουλης","band":1,"modes":"bus","arr":["60"],"off":[0,-0.8]}},{"type":"Feature","geometry":{"type":"Point","coordinates":[22.403749,39.658736]},"properties":{"line":"60","mode":"bus","color":"#0059a9","colorDark":"#00294f","band":1,"off":[0,1.1]}},{"type":"Feature","geometry":{"type":"Point","coordinates":[22.479966,39.676228]},"properties":{"name":"Ομορφοχώρι 3η Στάση","band":1,"modes":"bus","arr":["6"],"off":[0,-0.8]}},{"type":"Feature","geometry":{"type":"Point","coordinates":[22.479966,39.676228]},"properties":{"line":"6","mode":"bus","color":"#0059a9","colorDark":"#00294f","band":1,"off":[0,1.1]}},{"type":"Feature","geometry":{"type":"Point","coordinates":[22.393943,39.665313]},"properties":{"name":"ΕΛΤΑ Γιάννουλης","band":1,"modes":"bus","arr":["7"],"off":[0,-0.8]}},{"type":"Feature","geometry":{"type":"Point","coordinates":[22.393943,39.665313]},"properties":{"line":"7","mode":"bus","color":"#0059a9","colorDark":"#00294f","band":1,"off":[0,1.1]}},{"type":"Feature","geometry":{"type":"Point","coordinates":[22.465012,39.562068]},"properties":{"name":"Πλατεία Νίκαιας","band":1,"modes":"bus","arr":["8"],"off":[0,-0.8]}},{"type":"Feature","geometry":{"type":"Point","coordinates":[22.465012,39.562068]},"properties":{"line":"8","mode":"bus","color":"#0059a9","colorDark":"#00294f","band":1,"off":[0,1.1]}},{"type":"Feature","geometry":{"type":"Point","coordinates":[22.381547,39.62772]},"properties":{"name":"Γαιόπολις","band":1,"modes":"bus","arr":["9","12"],"off":[0,-0.8]}},{"type":"Feature","geometry":{"type":"Point","coordinates":[22.381547,39.62772]},"properties":{"line":"9","mode":"bus","color":"#0059a9","colorDark":"#00294f","band":1,"off":[-1.7,1.1]}},{"type":"Feature","geometry":{"type":"Point","coordinates":[22.381547,39.62772]},"properties":{"line":"12","mode":"bus","color":"#0059a9","colorDark":"#00294f","band":1,"off":[1.7,1.1]}},{"type":"Feature","geometry":{"type":"Point","coordinates":[22.410122,39.617175]},"properties":{"name":"Μουσικό Γυμνάσιο","band":1,"modes":"bus","arr":["10"],"off":[0,-0.8]}},{"type":"Feature","geometry":{"type":"Point","coordinates":[22.410122,39.617175]},"properties":{"line":"10","mode":"bus","color":"#0059a9","colorDark":"#00294f","band":1,"off":[0,1.1]}},{"type":"Feature","geometry":{"type":"Point","coordinates":[22.433121,39.62601]},"properties":{"name":"Πλατεία Τούμπας","band":1,"modes":"bus","arr":["11"],"off":[0,-0.8]}},{"type":"Feature","geometry":{"type":"Point","coordinates":[22.433121,39.62601]},"properties":{"line":"11","mode":"bus","color":"#0059a9","colorDark":"#00294f","band":1,"off":[0,1.1]}},{"type":"Feature","geometry":{"type":"Point","coordinates":[22.400893,39.635946]},"properties":{"name":"ΔΕΥΑΛ","band":1,"modes":"bus","arr":["11","14"],"off":[0,-0.8]}},{"type":"Feature","geometry":{"type":"Point","coordinates":[22.400893,39.635946]},"properties":{"line":"11","mode":"bus","color":"#0059a9","colorDark":"#00294f","band":1,"off":[-1.7,1.1]}},{"type":"Feature","geometry":{"type":"Point","coordinates":[22.400893,39.635946]},"properties":{"line":"14","mode":"bus","color":"#0059a9","colorDark":"#00294f","band":1,"off":[1.7,1.1]}},{"type":"Feature","geometry":{"type":"Point","coordinates":[22.487152,39.772089]},"properties":{"name":"MEDISPES","band":1,"modes":"bus","arr":["13"],"off":[0,-0.8]}},{"type":"Feature","geometry":{"type":"Point","coordinates":[22.487152,39.772089]},"properties":{"line":"13","mode":"bus","color":"#0059a9","colorDark":"#00294f","band":1,"off":[0,1.1]}},{"type":"Feature","geometry":{"type":"Point","coordinates":[22.492365,39.7616]},"properties":{"name":"Μπετινα","band":1,"modes":"bus","arr":["13","60"],"off":[0,-0.8]}},{"type":"Feature","geometry":{"type":"Point","coordinates":[22.492365,39.7616]},"properties":{"name":"Καρκανιας-Μπετινα","band":1,"modes":"bus","arr":["13","60"],"off":[0,-1.9]}},{"type":"Feature","geometry":{"type":"Point","coordinates":[22.492365,39.7616]},"properties":{"line":"13","mode":"bus","color":"#0059a9","colorDark":"#00294f","band":1,"off":[-1.7,1.1]}},{"type":"Feature","geometry":{"type":"Point","coordinates":[22.492365,39.7616]},"properties":{"line":"60","mode":"bus","color":"#0059a9","colorDark":"#00294f","band":1,"off":[1.7,1.1]}},{"type":"Feature","geometry":{"type":"Point","coordinates":[22.469864,39.581215]},"properties":{"name":"IKEA","band":1,"modes":"bus","arr":["15"],"off":[0,-0.8]}},{"type":"Feature","geometry":{"type":"Point","coordinates":[22.469864,39.581215]},"properties":{"line":"15","mode":"bus","color":"#0059a9","colorDark":"#00294f","band":1,"off":[0,1.1]}},{"type":"Feature","geometry":{"type":"Point","coordinates":[22.313438,39.629114]},"properties":{"name":"ANIMUS K.A.A.","band":1,"modes":"bus","arr":["16"],"off":[0,-0.8]}},{"type":"Feature","geometry":{"type":"Point","coordinates":[22.313438,39.629114]},"properties":{"line":"16","mode":"bus","color":"#0059a9","colorDark":"#00294f","band":1,"off":[0,1.1]}},{"type":"Feature","geometry":{"type":"Point","coordinates":[22.35114,39.619121]},"properties":{"name":"Πλατεία Τερψιθέας","band":1,"modes":"bus","arr":["18"],"off":[0,-0.8]}},{"type":"Feature","geometry":{"type":"Point","coordinates":[22.35114,39.619121]},"properties":{"line":"18","mode":"bus","color":"#0059a9","colorDark":"#00294f","band":1,"off":[0,1.1]}},{"type":"Feature","geometry":{"type":"Point","coordinates":[22.438987,39.659325]},"properties":{"name":"Νέα Σμύρνη Αφετηρία","band":2,"modes":"bus","arr":["1"],"off":[0,-0.8]}},{"type":"Feature","geometry":{"type":"Point","coordinates":[22.438987,39.659325]},"properties":{"line":"1","mode":"bus","color":"#0059a9","colorDark":"#00294f","band":2,"off":[0,1.1]}},{"type":"Feature","geometry":{"type":"Point","coordinates":[22.41871,39.640597]},"properties":{"name":"Ωδείο","band":2,"modes":"bus","arr":["1","2","4","6","8","11","12","16"],"off":[0,-0.8]}},{"type":"Feature","geometry":{"type":"Point","coordinates":[22.41871,39.640597]},"properties":{"name":"Μουσείο","band":2,"modes":"bus","arr":["1","2","4","6","8","11","12","16"],"off":[0,-1.9]}},{"type":"Feature","geometry":{"type":"Point","coordinates":[22.41871,39.640597]},"properties":{"name":"Κεντρική Πλατεία Γρ. 1,2","band":2,"modes":"bus","arr":["1","2","4","6","8","11","12","16"],"off":[0,-3]}},{"type":"Feature","geometry":{"type":"Point","coordinates":[22.41871,39.640597]},"properties":{"line":"1","mode":"bus","color":"#0059a9","colorDark":"#00294f","band":2,"off":[-6.8,1.1]}},{"type":"Feature","geometry":{"type":"Point","coordinates":[22.41871,39.640597]},"properties":{"line":"2","mode":"bus","color":"#0059a9","colorDark":"#00294f","band":2,"off":[-3.4,1.1]}},{"type":"Feature","geometry":{"type":"Point","coordinates":[22.41871,39.640597]},"properties":{"line":"4","mode":"bus","color":"#0059a9","colorDark":"#00294f","band":2,"off":[0,1.1]}},{"type":"Feature","geometry":{"type":"Point","coordinates":[22.41871,39.640597]},"properties":{"line":"6","mode":"bus","color":"#0059a9","colorDark":"#00294f","band":2,"off":[3.4,1.1]}},{"type":"Feature","geometry":{"type":"Point","coordinates":[22.41871,39.640597]},"properties":{"line":"8","mode":"bus","color":"#0059a9","colorDark":"#00294f","band":2,"off":[6.8,1.1]}},{"type":"Feature","geometry":{"type":"Point","coordinates":[22.41871,39.640597]},"properties":{"line":"11","mode":"bus","color":"#0059a9","colorDark":"#00294f","band":2,"off":[-3.4,3.1]}},{"type":"Feature","geometry":{"type":"Point","coordinates":[22.41871,39.640597]},"properties":{"line":"12","mode":"bus","color":"#0059a9","colorDark":"#00294f","band":2,"off":[0,3.1]}},{"type":"Feature","geometry":{"type":"Point","coordinates":[22.41871,39.640597]},"properties":{"line":"16","mode":"bus","color":"#0059a9","colorDark":"#00294f","band":2,"off":[3.4,3.1]}},{"type":"Feature","geometry":{"type":"Point","coordinates":[22.394022,39.625455]},"properties":{"name":"Πλατεία Λιβαδάκι","band":2,"modes":"bus","arr":["1"],"off":[0,-0.8]}},{"type":"Feature","geometry":{"type":"Point","coordinates":[22.394022,39.625455]},"properties":{"line":"1","mode":"bus","color":"#0059a9","colorDark":"#00294f","band":2,"off":[0,1.1]}},{"type":"Feature","geometry":{"type":"Point","coordinates":[22.400855,39.622093]},"properties":{"name":"Εργατικές Κατοικίες Νεάπολης","band":2,"modes":"bus","arr":["13"],"off":[0,-0.8]}},{"type":"Feature","geometry":{"type":"Point","coordinates":[22.400855,39.622093]},"properties":{"line":"13","mode":"bus","color":"#0059a9","colorDark":"#00294f","band":2,"off":[0,1.1]}},{"type":"Feature","geometry":{"type":"Point","coordinates":[22.399063,39.624451]},"properties":{"name":"Πλατεία Νεάπολης - Κωνσταντινίδης","band":2,"modes":"bus","arr":["1"],"off":[0,-0.8]}},{"type":"Feature","geometry":{"type":"Point","coordinates":[22.399063,39.624451]},"properties":{"line":"1","mode":"bus","color":"#0059a9","colorDark":"#00294f","band":2,"off":[0,1.1]}},{"type":"Feature","geometry":{"type":"Point","coordinates":[22.461974,39.628903]},"properties":{"name":"Τέρμα Βόλου","band":2,"modes":"bus","arr":["2"],"off":[0,-0.8]}},{"type":"Feature","geometry":{"type":"Point","coordinates":[22.461974,39.628903]},"properties":{"line":"2","mode":"bus","color":"#0059a9","colorDark":"#00294f","band":2,"off":[0,1.1]}},{"type":"Feature","geometry":{"type":"Point","coordinates":[22.500294,39.631083]},"properties":{"name":"Μελισσοχώρι Πλατεία","band":2,"modes":"bus","arr":["2"],"off":[0,-0.8]}},{"type":"Feature","geometry":{"type":"Point","coordinates":[22.500294,39.631083]},"properties":{"line":"2","mode":"bus","color":"#0059a9","colorDark":"#00294f","band":2,"off":[0,1.1]}},{"type":"Feature","geometry":{"type":"Point","coordinates":[22.501499,39.619942]},"properties":{"name":"Περιφερειακός Σταθμός Νιαβης","band":2,"modes":"bus","arr":["2"],"off":[0,-0.8]}},{"type":"Feature","geometry":{"type":"Point","coordinates":[22.501499,39.619942]},"properties":{"line":"2","mode":"bus","color":"#0059a9","colorDark":"#00294f","band":2,"off":[0,1.1]}},{"type":"Feature","geometry":{"type":"Point","coordinates":[22.417551,39.637979]},"properties":{"name":"Κεντρική Πλατεία Γρ. 7, 10","band":2,"modes":"bus","arr":["4","7","10","14","15"],"off":[0,-0.8]}},{"type":"Feature","geometry":{"type":"Point","coordinates":[22.417551,39.637979]},"properties":{"name":"Κεντρική Πλατεία Γρ. 3,4,Β14,15","band":2,"modes":"bus","arr":["4","7","10","14","15"],"off":[0,-3]}},{"type":"Feature","geometry":{"type":"Point","coordinates":[22.417551,39.637979]},"properties":{"name":"Δημοτικό Ωδείο","band":2,"modes":"bus","arr":["4","7","10","14","15"],"off":[0,-5.2]}},{"type":"Feature","geometry":{"type":"Point","coordinates":[22.417551,39.637979]},"properties":{"line":"4","mode":"bus","color":"#0059a9","colorDark":"#00294f","band":2,"off":[-6.8,1.1]}},{"type":"Feature","geometry":{"type":"Point","coordinates":[22.417551,39.637979]},"properties":{"line":"7","mode":"bus","color":"#0059a9","colorDark":"#00294f","band":2,"off":[-3.4,1.1]}},{"type":"Feature","geometry":{"type":"Point","coordinates":[22.417551,39.637979]},"properties":{"line":"10","mode":"bus","color":"#0059a9","colorDark":"#00294f","band":2,"off":[0,1.1]}},{"type":"Feature","geometry":{"type":"Point","coordinates":[22.417551,39.637979]},"properties":{"line":"14","mode":"bus","color":"#0059a9","colorDark":"#00294f","band":2,"off":[3.4,1.1]}},{"type":"Feature","geometry":{"type":"Point","coordinates":[22.417551,39.637979]},"properties":{"line":"15","mode":"bus","color":"#0059a9","colorDark":"#00294f","band":2,"off":[6.8,1.1]}},{"type":"Feature","geometry":{"type":"Point","coordinates":[22.413244,39.648284]},"properties":{"name":"Συνοικία Παπασταύρου","band":2,"modes":"bus","arr":["3"],"off":[0,-0.8]}},{"type":"Feature","geometry":{"type":"Point","coordinates":[22.413244,39.648284]},"properties":{"line":"3","mode":"bus","color":"#0059a9","colorDark":"#00294f","band":2,"off":[0,1.1]}},{"type":"Feature","geometry":{"type":"Point","coordinates":[22.412611,39.638554]},"properties":{"name":"Πλατεία Εβραίων Φαλάνη-Δασοχωρι","band":2,"modes":"bus","arr":["5","9","11","18"],"off":[0,-0.8]}},{"type":"Feature","geometry":{"type":"Point","coordinates":[22.412611,39.638554]},"properties":{"name":"Πλατεία Εβραίων Για ANIMUS","band":2,"modes":"bus","arr":["5","9","11","18"],"off":[0,-3]}},{"type":"Feature","geometry":{"type":"Point","coordinates":[22.412611,39.638554]},"properties":{"name":"Πλατεία Εβραίων","band":2,"modes":"bus","arr":["5","9","11","18"],"off":[0,-5.2]}},{"type":"Feature","geometry":{"type":"Point","coordinates":[22.412611,39.638554]},"properties":{"line":"5","mode":"bus","color":"#0059a9","colorDark":"#00294f","band":2,"off":[-5.1,1.1]}},{"type":"Feature","geometry":{"type":"Point","coordinates":[22.412611,39.638554]},"properties":{"line":"9","mode":"bus","color":"#0059a9","colorDark":"#00294f","band":2,"off":[-1.7,1.1]}},{"type":"Feature","geometry":{"type":"Point","coordinates":[22.412611,39.638554]},"properties":{"line":"11","mode":"bus","color":"#0059a9","colorDark":"#00294f","band":2,"off":[1.7,1.1]}},{"type":"Feature","geometry":{"type":"Point","coordinates":[22.412611,39.638554]},"properties":{"line":"18","mode":"bus","color":"#0059a9","colorDark":"#00294f","band":2,"off":[5.1,1.1]}},{"type":"Feature","geometry":{"type":"Point","coordinates":[22.437308,39.601234]},"properties":{"name":"Βιοκαρπέτ","band":2,"modes":"bus","arr":["3"],"off":[0,-0.8]}},{"type":"Feature","geometry":{"type":"Point","coordinates":[22.437308,39.601234]},"properties":{"line":"3","mode":"bus","color":"#0059a9","colorDark":"#00294f","band":2,"off":[0,1.1]}},{"type":"Feature","geometry":{"type":"Point","coordinates":[22.435629,39.599829]},"properties":{"name":"PRAKTIKER","band":2,"modes":"bus","arr":["3"],"off":[0,-0.8]}},{"type":"Feature","geometry":{"type":"Point","coordinates":[22.435629,39.599829]},"properties":{"line":"3","mode":"bus","color":"#0059a9","colorDark":"#00294f","band":2,"off":[0,1.1]}},{"type":"Feature","geometry":{"type":"Point","coordinates":[22.422191,39.627134]},"properties":{"name":"Τελωνείο - Παλιό Κοιμητήριο","band":2,"modes":"bus","arr":["60"],"off":[0,-0.8]}},{"type":"Feature","geometry":{"type":"Point","coordinates":[22.422191,39.627134]},"properties":{"line":"60","mode":"bus","color":"#0059a9","colorDark":"#00294f","band":2,"off":[0,1.1]}},{"type":"Feature","geometry":{"type":"Point","coordinates":[22.440896,39.605753]},"properties":{"name":"Fashion City Outlet","band":2,"modes":"bus","arr":["3","15"],"off":[0,-0.8]}},{"type":"Feature","geometry":{"type":"Point","coordinates":[22.440896,39.605753]},"properties":{"line":"3","mode":"bus","color":"#0059a9","colorDark":"#00294f","band":2,"off":[-1.7,1.1]}},{"type":"Feature","geometry":{"type":"Point","coordinates":[22.440896,39.605753]},"properties":{"line":"15","mode":"bus","color":"#0059a9","colorDark":"#00294f","band":2,"off":[1.7,1.1]}},{"type":"Feature","geometry":{"type":"Point","coordinates":[22.431507,39.638513]},"properties":{"name":"Παιδικός Σταθμός Καραγάτση","band":2,"modes":"bus","arr":["4"],"off":[0,-0.8]}},{"type":"Feature","geometry":{"type":"Point","coordinates":[22.431507,39.638513]},"properties":{"line":"4","mode":"bus","color":"#0059a9","colorDark":"#00294f","band":2,"off":[0,1.1]}},{"type":"Feature","geometry":{"type":"Point","coordinates":[22.386004,39.609663]},"properties":{"name":"Πανεπιστημιακό Νοσοκομείο","band":2,"modes":"bus","arr":["4"],"off":[0,-0.8]}},{"type":"Feature","geometry":{"type":"Point","coordinates":[22.386004,39.609663]},"properties":{"line":"4","mode":"bus","color":"#0059a9","colorDark":"#00294f","band":2,"off":[0,1.1]}},{"type":"Feature","geometry":{"type":"Point","coordinates":[22.399394,39.60478]},"properties":{"name":"Νέο Κοιμητήριο","band":2,"modes":"bus","arr":["4"],"off":[0,-0.8]}},{"type":"Feature","geometry":{"type":"Point","coordinates":[22.399394,39.60478]},"properties":{"line":"4","mode":"bus","color":"#0059a9","colorDark":"#00294f","band":2,"off":[0,1.1]}},{"type":"Feature","geometry":{"type":"Point","coordinates":[22.387147,39.61504]},"properties":{"name":"Βιόπολις Σχολή Επιστημών Υγείας","band":2,"modes":"bus","arr":["4"],"off":[0,-0.8]}},{"type":"Feature","geometry":{"type":"Point","coordinates":[22.387147,39.61504]},"properties":{"line":"4","mode":"bus","color":"#0059a9","colorDark":"#00294f","band":2,"off":[0,1.1]}},{"type":"Feature","geometry":{"type":"Point","coordinates":[22.395558,39.721838]},"properties":{"name":"Πλατεία Φαλάνης","band":2,"modes":"bus","arr":["5"],"off":[0,-0.8]}},{"type":"Feature","geometry":{"type":"Point","coordinates":[22.395558,39.721838]},"properties":{"line":"5","mode":"bus","color":"#0059a9","colorDark":"#00294f","band":2,"off":[0,1.1]}},{"type":"Feature","geometry":{"type":"Point","coordinates":[22.403749,39.658736]},"properties":{"name":"S/M Σκλαβενίτης Γιάννουλης","band":2,"modes":"bus","arr":["60"],"off":[0,-0.8]}},{"type":"Feature","geometry":{"type":"Point","coordinates":[22.403749,39.658736]},"properties":{"line":"60","mode":"bus","color":"#0059a9","colorDark":"#00294f","band":2,"off":[0,1.1]}},{"type":"Feature","geometry":{"type":"Point","coordinates":[22.479966,39.676228]},"properties":{"name":"Ομορφοχώρι 3η Στάση","band":2,"modes":"bus","arr":["6"],"off":[0,-0.8]}},{"type":"Feature","geometry":{"type":"Point","coordinates":[22.479966,39.676228]},"properties":{"line":"6","mode":"bus","color":"#0059a9","colorDark":"#00294f","band":2,"off":[0,1.1]}},{"type":"Feature","geometry":{"type":"Point","coordinates":[22.393943,39.665313]},"properties":{"name":"ΕΛΤΑ Γιάννουλης","band":2,"modes":"bus","arr":["7"],"off":[0,-0.8]}},{"type":"Feature","geometry":{"type":"Point","coordinates":[22.393943,39.665313]},"properties":{"line":"7","mode":"bus","color":"#0059a9","colorDark":"#00294f","band":2,"off":[0,1.1]}},{"type":"Feature","geometry":{"type":"Point","coordinates":[22.465012,39.562068]},"properties":{"name":"Πλατεία Νίκαιας","band":2,"modes":"bus","arr":["8"],"off":[0,-0.8]}},{"type":"Feature","geometry":{"type":"Point","coordinates":[22.465012,39.562068]},"properties":{"line":"8","mode":"bus","color":"#0059a9","colorDark":"#00294f","band":2,"off":[0,1.1]}},{"type":"Feature","geometry":{"type":"Point","coordinates":[22.381547,39.62772]},"properties":{"name":"Γαιόπολις","band":2,"modes":"bus","arr":["9","12"],"off":[0,-0.8]}},{"type":"Feature","geometry":{"type":"Point","coordinates":[22.381547,39.62772]},"properties":{"line":"9","mode":"bus","color":"#0059a9","colorDark":"#00294f","band":2,"off":[-1.7,1.1]}},{"type":"Feature","geometry":{"type":"Point","coordinates":[22.381547,39.62772]},"properties":{"line":"12","mode":"bus","color":"#0059a9","colorDark":"#00294f","band":2,"off":[1.7,1.1]}},{"type":"Feature","geometry":{"type":"Point","coordinates":[22.410122,39.617175]},"properties":{"name":"Μουσικό Γυμνάσιο","band":2,"modes":"bus","arr":["10"],"off":[0,-0.8]}},{"type":"Feature","geometry":{"type":"Point","coordinates":[22.410122,39.617175]},"properties":{"line":"10","mode":"bus","color":"#0059a9","colorDark":"#00294f","band":2,"off":[0,1.1]}},{"type":"Feature","geometry":{"type":"Point","coordinates":[22.433121,39.62601]},"properties":{"name":"Πλατεία Τούμπας","band":2,"modes":"bus","arr":["11"],"off":[0,-0.8]}},{"type":"Feature","geometry":{"type":"Point","coordinates":[22.433121,39.62601]},"properties":{"line":"11","mode":"bus","color":"#0059a9","colorDark":"#00294f","band":2,"off":[0,1.1]}},{"type":"Feature","geometry":{"type":"Point","coordinates":[22.400893,39.635946]},"properties":{"name":"ΔΕΥΑΛ","band":2,"modes":"bus","arr":["11","14"],"off":[0,-0.8]}},{"type":"Feature","geometry":{"type":"Point","coordinates":[22.400893,39.635946]},"properties":{"line":"11","mode":"bus","color":"#0059a9","colorDark":"#00294f","band":2,"off":[-1.7,1.1]}},{"type":"Feature","geometry":{"type":"Point","coordinates":[22.400893,39.635946]},"properties":{"line":"14","mode":"bus","color":"#0059a9","colorDark":"#00294f","band":2,"off":[1.7,1.1]}},{"type":"Feature","geometry":{"type":"Point","coordinates":[22.487152,39.772089]},"properties":{"name":"MEDISPES","band":2,"modes":"bus","arr":["13"],"off":[0,-0.8]}},{"type":"Feature","geometry":{"type":"Point","coordinates":[22.487152,39.772089]},"properties":{"line":"13","mode":"bus","color":"#0059a9","colorDark":"#00294f","band":2,"off":[0,1.1]}},{"type":"Feature","geometry":{"type":"Point","coordinates":[22.492365,39.7616]},"properties":{"name":"Μπετινα","band":2,"modes":"bus","arr":["13","60"],"off":[0,-0.8]}},{"type":"Feature","geometry":{"type":"Point","coordinates":[22.492365,39.7616]},"properties":{"name":"Καρκανιας-Μπετινα","band":2,"modes":"bus","arr":["13","60"],"off":[0,-1.9]}},{"type":"Feature","geometry":{"type":"Point","coordinates":[22.492365,39.7616]},"properties":{"line":"13","mode":"bus","color":"#0059a9","colorDark":"#00294f","band":2,"off":[-1.7,1.1]}},{"type":"Feature","geometry":{"type":"Point","coordinates":[22.492365,39.7616]},"properties":{"line":"60","mode":"bus","color":"#0059a9","colorDark":"#00294f","band":2,"off":[1.7,1.1]}},{"type":"Feature","geometry":{"type":"Point","coordinates":[22.469864,39.581215]},"properties":{"name":"IKEA","band":2,"modes":"bus","arr":["15"],"off":[0,-0.8]}},{"type":"Feature","geometry":{"type":"Point","coordinates":[22.469864,39.581215]},"properties":{"line":"15","mode":"bus","color":"#0059a9","colorDark":"#00294f","band":2,"off":[0,1.1]}},{"type":"Feature","geometry":{"type":"Point","coordinates":[22.313438,39.629114]},"properties":{"name":"ANIMUS K.A.A.","band":2,"modes":"bus","arr":["16"],"off":[0,-0.8]}},{"type":"Feature","geometry":{"type":"Point","coordinates":[22.313438,39.629114]},"properties":{"line":"16","mode":"bus","color":"#0059a9","colorDark":"#00294f","band":2,"off":[0,1.1]}},{"type":"Feature","geometry":{"type":"Point","coordinates":[22.35114,39.619121]},"properties":{"name":"Πλατεία Τερψιθέας","band":2,"modes":"bus","arr":["18"],"off":[0,-0.8]}},{"type":"Feature","geometry":{"type":"Point","coordinates":[22.35114,39.619121]},"properties":{"line":"18","mode":"bus","color":"#0059a9","colorDark":"#00294f","band":2,"off":[0,1.1]}},{"type":"Feature","geometry":{"type":"Point","coordinates":[22.438987,39.659325]},"properties":{"name":"Νέα Σμύρνη Αφετηρία","band":3,"modes":"bus","arr":["1"],"off":[0,-0.8]}},{"type":"Feature","geometry":{"type":"Point","coordinates":[22.438987,39.659325]},"properties":{"line":"1","mode":"bus","color":"#0059a9","colorDark":"#00294f","band":3,"off":[0,1.1]}},{"type":"Feature","geometry":{"type":"Point","coordinates":[22.419406,39.639797]},"properties":{"name":"Ωδείο","band":3,"modes":"bus","arr":["1","4","6","8","11","12","14","16"],"off":[0,-0.8]}},{"type":"Feature","geometry":{"type":"Point","coordinates":[22.419406,39.639797]},"properties":{"name":"Μουσείο","band":3,"modes":"bus","arr":["1","4","6","8","11","12","14","16"],"off":[0,-1.9]}},{"type":"Feature","geometry":{"type":"Point","coordinates":[22.419406,39.639797]},"properties":{"name":"Δημοτικό Ωδείο","band":3,"modes":"bus","arr":["1","4","6","8","11","12","14","16"],"off":[0,-3]}},{"type":"Feature","geometry":{"type":"Point","coordinates":[22.419406,39.639797]},"properties":{"line":"1","mode":"bus","color":"#0059a9","colorDark":"#00294f","band":3,"off":[-6.8,1.1]}},{"type":"Feature","geometry":{"type":"Point","coordinates":[22.419406,39.639797]},"properties":{"line":"4","mode":"bus","color":"#0059a9","colorDark":"#00294f","band":3,"off":[-3.4,1.1]}},{"type":"Feature","geometry":{"type":"Point","coordinates":[22.419406,39.639797]},"properties":{"line":"6","mode":"bus","color":"#0059a9","colorDark":"#00294f","band":3,"off":[0,1.1]}},{"type":"Feature","geometry":{"type":"Point","coordinates":[22.419406,39.639797]},"properties":{"line":"8","mode":"bus","color":"#0059a9","colorDark":"#00294f","band":3,"off":[3.4,1.1]}},{"type":"Feature","geometry":{"type":"Point","coordinates":[22.419406,39.639797]},"properties":{"line":"11","mode":"bus","color":"#0059a9","colorDark":"#00294f","band":3,"off":[6.8,1.1]}},{"type":"Feature","geometry":{"type":"Point","coordinates":[22.419406,39.639797]},"properties":{"line":"12","mode":"bus","color":"#0059a9","colorDark":"#00294f","band":3,"off":[-3.4,3.1]}},{"type":"Feature","geometry":{"type":"Point","coordinates":[22.419406,39.639797]},"properties":{"line":"14","mode":"bus","color":"#0059a9","colorDark":"#00294f","band":3,"off":[0,3.1]}},{"type":"Feature","geometry":{"type":"Point","coordinates":[22.419406,39.639797]},"properties":{"line":"16","mode":"bus","color":"#0059a9","colorDark":"#00294f","band":3,"off":[3.4,3.1]}},{"type":"Feature","geometry":{"type":"Point","coordinates":[22.394022,39.625455]},"properties":{"name":"Πλατεία Λιβαδάκι","band":3,"modes":"bus","arr":["1"],"off":[0,-0.8]}},{"type":"Feature","geometry":{"type":"Point","coordinates":[22.394022,39.625455]},"properties":{"line":"1","mode":"bus","color":"#0059a9","colorDark":"#00294f","band":3,"off":[0,1.1]}},{"type":"Feature","geometry":{"type":"Point","coordinates":[22.400855,39.622093]},"properties":{"name":"Εργατικές Κατοικίες Νεάπολης","band":3,"modes":"bus","arr":["13"],"off":[0,-0.8]}},{"type":"Feature","geometry":{"type":"Point","coordinates":[22.400855,39.622093]},"properties":{"line":"13","mode":"bus","color":"#0059a9","colorDark":"#00294f","band":3,"off":[0,1.1]}},{"type":"Feature","geometry":{"type":"Point","coordinates":[22.399063,39.624451]},"properties":{"name":"Πλατεία Νεάπολης - Κωνσταντινίδης","band":3,"modes":"bus","arr":["1"],"off":[0,-0.8]}},{"type":"Feature","geometry":{"type":"Point","coordinates":[22.399063,39.624451]},"properties":{"line":"1","mode":"bus","color":"#0059a9","colorDark":"#00294f","band":3,"off":[0,1.1]}},{"type":"Feature","geometry":{"type":"Point","coordinates":[22.416097,39.638779]},"properties":{"name":"Κεντρική Πλατεία Γρ. 7, 10","band":3,"modes":"bus","arr":["1","2","4","7","10","15"],"off":[0,-0.8]}},{"type":"Feature","geometry":{"type":"Point","coordinates":[22.416097,39.638779]},"properties":{"name":"Κεντρική Πλατεία Γρ. 3,4,Β14,15","band":3,"modes":"bus","arr":["1","2","4","7","10","15"],"off":[0,-3]}},{"type":"Feature","geometry":{"type":"Point","coordinates":[22.416097,39.638779]},"properties":{"name":"Κεντρική Πλατεία Γρ. 1,2","band":3,"modes":"bus","arr":["1","2","4","7","10","15"],"off":[0,-5.2]}},{"type":"Feature","geometry":{"type":"Point","coordinates":[22.416097,39.638779]},"properties":{"line":"1","mode":"bus","color":"#0059a9","colorDark":"#00294f","band":3,"off":[-6.8,1.1]}},{"type":"Feature","geometry":{"type":"Point","coordinates":[22.416097,39.638779]},"properties":{"line":"2","mode":"bus","color":"#0059a9","colorDark":"#00294f","band":3,"off":[-3.4,1.1]}},{"type":"Feature","geometry":{"type":"Point","coordinates":[22.416097,39.638779]},"properties":{"line":"4","mode":"bus","color":"#0059a9","colorDark":"#00294f","band":3,"off":[0,1.1]}},{"type":"Feature","geometry":{"type":"Point","coordinates":[22.416097,39.638779]},"properties":{"line":"7","mode":"bus","color":"#0059a9","colorDark":"#00294f","band":3,"off":[3.4,1.1]}},{"type":"Feature","geometry":{"type":"Point","coordinates":[22.416097,39.638779]},"properties":{"line":"10","mode":"bus","color":"#0059a9","colorDark":"#00294f","band":3,"off":[6.8,1.1]}},{"type":"Feature","geometry":{"type":"Point","coordinates":[22.416097,39.638779]},"properties":{"line":"15","mode":"bus","color":"#0059a9","colorDark":"#00294f","band":3,"off":[0,3.1]}},{"type":"Feature","geometry":{"type":"Point","coordinates":[22.461974,39.628903]},"properties":{"name":"Τέρμα Βόλου","band":3,"modes":"bus","arr":["2"],"off":[0,-0.8]}},{"type":"Feature","geometry":{"type":"Point","coordinates":[22.461974,39.628903]},"properties":{"line":"2","mode":"bus","color":"#0059a9","colorDark":"#00294f","band":3,"off":[0,1.1]}},{"type":"Feature","geometry":{"type":"Point","coordinates":[22.500294,39.631083]},"properties":{"name":"Μελισσοχώρι Πλατεία","band":3,"modes":"bus","arr":["2"],"off":[0,-0.8]}},{"type":"Feature","geometry":{"type":"Point","coordinates":[22.500294,39.631083]},"properties":{"line":"2","mode":"bus","color":"#0059a9","colorDark":"#00294f","band":3,"off":[0,1.1]}},{"type":"Feature","geometry":{"type":"Point","coordinates":[22.501499,39.619942]},"properties":{"name":"Περιφερειακός Σταθμός Νιαβης","band":3,"modes":"bus","arr":["2"],"off":[0,-0.8]}},{"type":"Feature","geometry":{"type":"Point","coordinates":[22.501499,39.619942]},"properties":{"line":"2","mode":"bus","color":"#0059a9","colorDark":"#00294f","band":3,"off":[0,1.1]}},{"type":"Feature","geometry":{"type":"Point","coordinates":[22.413244,39.648284]},"properties":{"name":"Συνοικία Παπασταύρου","band":3,"modes":"bus","arr":["3"],"off":[0,-0.8]}},{"type":"Feature","geometry":{"type":"Point","coordinates":[22.413244,39.648284]},"properties":{"line":"3","mode":"bus","color":"#0059a9","colorDark":"#00294f","band":3,"off":[0,1.1]}},{"type":"Feature","geometry":{"type":"Point","coordinates":[22.413369,39.638554]},"properties":{"name":"Πλατεία Εβραίων Φαλάνη-Δασοχωρι","band":3,"modes":"bus","arr":["5","9","11","18"],"off":[0,-0.8]}},{"type":"Feature","geometry":{"type":"Point","coordinates":[22.413369,39.638554]},"properties":{"name":"Πλατεία Εβραίων Για ANIMUS","band":3,"modes":"bus","arr":["5","9","11","18"],"off":[0,-3]}},{"type":"Feature","geometry":{"type":"Point","coordinates":[22.413369,39.638554]},"properties":{"name":"Πλατεία Εβραίων","band":3,"modes":"bus","arr":["5","9","11","18"],"off":[0,-5.2]}},{"type":"Feature","geometry":{"type":"Point","coordinates":[22.413369,39.638554]},"properties":{"line":"5","mode":"bus","color":"#0059a9","colorDark":"#00294f","band":3,"off":[-5.1,1.1]}},{"type":"Feature","geometry":{"type":"Point","coordinates":[22.413369,39.638554]},"properties":{"line":"9","mode":"bus","color":"#0059a9","colorDark":"#00294f","band":3,"off":[-1.7,1.1]}},{"type":"Feature","geometry":{"type":"Point","coordinates":[22.413369,39.638554]},"properties":{"line":"11","mode":"bus","color":"#0059a9","colorDark":"#00294f","band":3,"off":[1.7,1.1]}},{"type":"Feature","geometry":{"type":"Point","coordinates":[22.413369,39.638554]},"properties":{"line":"18","mode":"bus","color":"#0059a9","colorDark":"#00294f","band":3,"off":[5.1,1.1]}},{"type":"Feature","geometry":{"type":"Point","coordinates":[22.437308,39.601234]},"properties":{"name":"Βιοκαρπέτ","band":3,"modes":"bus","arr":["3"],"off":[0,-0.8]}},{"type":"Feature","geometry":{"type":"Point","coordinates":[22.437308,39.601234]},"properties":{"line":"3","mode":"bus","color":"#0059a9","colorDark":"#00294f","band":3,"off":[0,1.1]}},{"type":"Feature","geometry":{"type":"Point","coordinates":[22.435629,39.599829]},"properties":{"name":"PRAKTIKER","band":3,"modes":"bus","arr":["3"],"off":[0,-0.8]}},{"type":"Feature","geometry":{"type":"Point","coordinates":[22.435629,39.599829]},"properties":{"line":"3","mode":"bus","color":"#0059a9","colorDark":"#00294f","band":3,"off":[0,1.1]}},{"type":"Feature","geometry":{"type":"Point","coordinates":[22.422191,39.627134]},"properties":{"name":"Τελωνείο - Παλιό Κοιμητήριο","band":3,"modes":"bus","arr":["60"],"off":[0,-0.8]}},{"type":"Feature","geometry":{"type":"Point","coordinates":[22.422191,39.627134]},"properties":{"line":"60","mode":"bus","color":"#0059a9","colorDark":"#00294f","band":3,"off":[0,1.1]}},{"type":"Feature","geometry":{"type":"Point","coordinates":[22.440896,39.605753]},"properties":{"name":"Fashion City Outlet","band":3,"modes":"bus","arr":["3","15"],"off":[0,-0.8]}},{"type":"Feature","geometry":{"type":"Point","coordinates":[22.440896,39.605753]},"properties":{"line":"3","mode":"bus","color":"#0059a9","colorDark":"#00294f","band":3,"off":[-1.7,1.1]}},{"type":"Feature","geometry":{"type":"Point","coordinates":[22.440896,39.605753]},"properties":{"line":"15","mode":"bus","color":"#0059a9","colorDark":"#00294f","band":3,"off":[1.7,1.1]}},{"type":"Feature","geometry":{"type":"Point","coordinates":[22.431507,39.638513]},"properties":{"name":"Παιδικός Σταθμός Καραγάτση","band":3,"modes":"bus","arr":["4"],"off":[0,-0.8]}},{"type":"Feature","geometry":{"type":"Point","coordinates":[22.431507,39.638513]},"properties":{"line":"4","mode":"bus","color":"#0059a9","colorDark":"#00294f","band":3,"off":[0,1.1]}},{"type":"Feature","geometry":{"type":"Point","coordinates":[22.386004,39.609663]},"properties":{"name":"Πανεπιστημιακό Νοσοκομείο","band":3,"modes":"bus","arr":["4"],"off":[0,-0.8]}},{"type":"Feature","geometry":{"type":"Point","coordinates":[22.386004,39.609663]},"properties":{"line":"4","mode":"bus","color":"#0059a9","colorDark":"#00294f","band":3,"off":[0,1.1]}},{"type":"Feature","geometry":{"type":"Point","coordinates":[22.399394,39.60478]},"properties":{"name":"Νέο Κοιμητήριο","band":3,"modes":"bus","arr":["4"],"off":[0,-0.8]}},{"type":"Feature","geometry":{"type":"Point","coordinates":[22.399394,39.60478]},"properties":{"line":"4","mode":"bus","color":"#0059a9","colorDark":"#00294f","band":3,"off":[0,1.1]}},{"type":"Feature","geometry":{"type":"Point","coordinates":[22.387147,39.61504]},"properties":{"name":"Βιόπολις Σχολή Επιστημών Υγείας","band":3,"modes":"bus","arr":["4"],"off":[0,-0.8]}},{"type":"Feature","geometry":{"type":"Point","coordinates":[22.387147,39.61504]},"properties":{"line":"4","mode":"bus","color":"#0059a9","colorDark":"#00294f","band":3,"off":[0,1.1]}},{"type":"Feature","geometry":{"type":"Point","coordinates":[22.395558,39.721838]},"properties":{"name":"Πλατεία Φαλάνης","band":3,"modes":"bus","arr":["5"],"off":[0,-0.8]}},{"type":"Feature","geometry":{"type":"Point","coordinates":[22.395558,39.721838]},"properties":{"line":"5","mode":"bus","color":"#0059a9","colorDark":"#00294f","band":3,"off":[0,1.1]}},{"type":"Feature","geometry":{"type":"Point","coordinates":[22.403749,39.658736]},"properties":{"name":"S/M Σκλαβενίτης Γιάννουλης","band":3,"modes":"bus","arr":["60"],"off":[0,-0.8]}},{"type":"Feature","geometry":{"type":"Point","coordinates":[22.403749,39.658736]},"properties":{"line":"60","mode":"bus","color":"#0059a9","colorDark":"#00294f","band":3,"off":[0,1.1]}},{"type":"Feature","geometry":{"type":"Point","coordinates":[22.479966,39.676228]},"properties":{"name":"Ομορφοχώρι 3η Στάση","band":3,"modes":"bus","arr":["6"],"off":[0,-0.8]}},{"type":"Feature","geometry":{"type":"Point","coordinates":[22.479966,39.676228]},"properties":{"line":"6","mode":"bus","color":"#0059a9","colorDark":"#00294f","band":3,"off":[0,1.1]}},{"type":"Feature","geometry":{"type":"Point","coordinates":[22.393943,39.665313]},"properties":{"name":"ΕΛΤΑ Γιάννουλης","band":3,"modes":"bus","arr":["7"],"off":[0,-0.8]}},{"type":"Feature","geometry":{"type":"Point","coordinates":[22.393943,39.665313]},"properties":{"line":"7","mode":"bus","color":"#0059a9","colorDark":"#00294f","band":3,"off":[0,1.1]}},{"type":"Feature","geometry":{"type":"Point","coordinates":[22.465012,39.562068]},"properties":{"name":"Πλατεία Νίκαιας","band":3,"modes":"bus","arr":["8"],"off":[0,-0.8]}},{"type":"Feature","geometry":{"type":"Point","coordinates":[22.465012,39.562068]},"properties":{"line":"8","mode":"bus","color":"#0059a9","colorDark":"#00294f","band":3,"off":[0,1.1]}},{"type":"Feature","geometry":{"type":"Point","coordinates":[22.381547,39.62772]},"properties":{"name":"Γαιόπολις","band":3,"modes":"bus","arr":["9","12"],"off":[0,-0.8]}},{"type":"Feature","geometry":{"type":"Point","coordinates":[22.381547,39.62772]},"properties":{"line":"9","mode":"bus","color":"#0059a9","colorDark":"#00294f","band":3,"off":[-1.7,1.1]}},{"type":"Feature","geometry":{"type":"Point","coordinates":[22.381547,39.62772]},"properties":{"line":"12","mode":"bus","color":"#0059a9","colorDark":"#00294f","band":3,"off":[1.7,1.1]}},{"type":"Feature","geometry":{"type":"Point","coordinates":[22.410122,39.617175]},"properties":{"name":"Μουσικό Γυμνάσιο","band":3,"modes":"bus","arr":["10"],"off":[0,-0.8]}},{"type":"Feature","geometry":{"type":"Point","coordinates":[22.410122,39.617175]},"properties":{"line":"10","mode":"bus","color":"#0059a9","colorDark":"#00294f","band":3,"off":[0,1.1]}},{"type":"Feature","geometry":{"type":"Point","coordinates":[22.433121,39.62601]},"properties":{"name":"Πλατεία Τούμπας","band":3,"modes":"bus","arr":["11"],"off":[0,-0.8]}},{"type":"Feature","geometry":{"type":"Point","coordinates":[22.433121,39.62601]},"properties":{"line":"11","mode":"bus","color":"#0059a9","colorDark":"#00294f","band":3,"off":[0,1.1]}},{"type":"Feature","geometry":{"type":"Point","coordinates":[22.400893,39.635946]},"properties":{"name":"ΔΕΥΑΛ","band":3,"modes":"bus","arr":["11","14"],"off":[0,-0.8]}},{"type":"Feature","geometry":{"type":"Point","coordinates":[22.400893,39.635946]},"properties":{"line":"11","mode":"bus","color":"#0059a9","colorDark":"#00294f","band":3,"off":[-1.7,1.1]}},{"type":"Feature","geometry":{"type":"Point","coordinates":[22.400893,39.635946]},"properties":{"line":"14","mode":"bus","color":"#0059a9","colorDark":"#00294f","band":3,"off":[1.7,1.1]}},{"type":"Feature","geometry":{"type":"Point","coordinates":[22.487152,39.772089]},"properties":{"name":"MEDISPES","band":3,"modes":"bus","arr":["13"],"off":[0,-0.8]}},{"type":"Feature","geometry":{"type":"Point","coordinates":[22.487152,39.772089]},"properties":{"line":"13","mode":"bus","color":"#0059a9","colorDark":"#00294f","band":3,"off":[0,1.1]}},{"type":"Feature","geometry":{"type":"Point","coordinates":[22.492031,39.761917]},"properties":{"name":"Καρκανιας-Μπετινα","band":3,"modes":"bus","arr":["13"],"off":[0,-0.8]}},{"type":"Feature","geometry":{"type":"Point","coordinates":[22.492031,39.761917]},"properties":{"line":"13","mode":"bus","color":"#0059a9","colorDark":"#00294f","band":3,"off":[0,1.1]}},{"type":"Feature","geometry":{"type":"Point","coordinates":[22.469864,39.581215]},"properties":{"name":"IKEA","band":3,"modes":"bus","arr":["15"],"off":[0,-0.8]}},{"type":"Feature","geometry":{"type":"Point","coordinates":[22.469864,39.581215]},"properties":{"line":"15","mode":"bus","color":"#0059a9","colorDark":"#00294f","band":3,"off":[0,1.1]}},{"type":"Feature","geometry":{"type":"Point","coordinates":[22.313438,39.629114]},"properties":{"name":"ANIMUS K.A.A.","band":3,"modes":"bus","arr":["16"],"off":[0,-0.8]}},{"type":"Feature","geometry":{"type":"Point","coordinates":[22.313438,39.629114]},"properties":{"line":"16","mode":"bus","color":"#0059a9","colorDark":"#00294f","band":3,"off":[0,1.1]}},{"type":"Feature","geometry":{"type":"Point","coordinates":[22.35114,39.619121]},"properties":{"name":"Πλατεία Τερψιθέας","band":3,"modes":"bus","arr":["18"],"off":[0,-0.8]}},{"type":"Feature","geometry":{"type":"Point","coordinates":[22.35114,39.619121]},"properties":{"line":"18","mode":"bus","color":"#0059a9","colorDark":"#00294f","band":3,"off":[0,1.1]}},{"type":"Feature","geometry":{"type":"Point","coordinates":[22.492699,39.761283]},"properties":{"name":"Μπετινα","band":3,"modes":"bus","arr":["60"],"off":[0,-0.8]}},{"type":"Feature","geometry":{"type":"Point","coordinates":[22.492699,39.761283]},"properties":{"line":"60","mode":"bus","color":"#0059a9","colorDark":"#00294f","band":3,"off":[0,1.1]}},{"type":"Feature","geometry":{"type":"Point","coordinates":[22.438987,39.659325]},"properties":{"name":"Νέα Σμύρνη Αφετηρία","band":4,"modes":"bus","arr":["1"],"off":[0,-0.8]}},{"type":"Feature","geometry":{"type":"Point","coordinates":[22.438987,39.659325]},"properties":{"line":"1","mode":"bus","color":"#0059a9","colorDark":"#00294f","band":4,"off":[0,1.1]}},{"type":"Feature","geometry":{"type":"Point","coordinates":[22.419382,39.639693]},"properties":{"name":"Ωδείο","band":4,"modes":"bus","arr":["1","4","6","8","11","12","16"],"off":[0,-0.8]}},{"type":"Feature","geometry":{"type":"Point","coordinates":[22.419382,39.639693]},"properties":{"line":"1","mode":"bus","color":"#0059a9","colorDark":"#00294f","band":4,"off":[-6.8,1.1]}},{"type":"Feature","geometry":{"type":"Point","coordinates":[22.419382,39.639693]},"properties":{"line":"4","mode":"bus","color":"#0059a9","colorDark":"#00294f","band":4,"off":[-3.4,1.1]}},{"type":"Feature","geometry":{"type":"Point","coordinates":[22.419382,39.639693]},"properties":{"line":"6","mode":"bus","color":"#0059a9","colorDark":"#00294f","band":4,"off":[0,1.1]}},{"type":"Feature","geometry":{"type":"Point","coordinates":[22.419382,39.639693]},"properties":{"line":"8","mode":"bus","color":"#0059a9","colorDark":"#00294f","band":4,"off":[3.4,1.1]}},{"type":"Feature","geometry":{"type":"Point","coordinates":[22.419382,39.639693]},"properties":{"line":"11","mode":"bus","color":"#0059a9","colorDark":"#00294f","band":4,"off":[6.8,1.1]}},{"type":"Feature","geometry":{"type":"Point","coordinates":[22.419382,39.639693]},"properties":{"line":"12","mode":"bus","color":"#0059a9","colorDark":"#00294f","band":4,"off":[-1.7,3.1]}},{"type":"Feature","geometry":{"type":"Point","coordinates":[22.419382,39.639693]},"properties":{"line":"16","mode":"bus","color":"#0059a9","colorDark":"#00294f","band":4,"off":[1.7,3.1]}},{"type":"Feature","geometry":{"type":"Point","coordinates":[22.394022,39.625455]},"properties":{"name":"Πλατεία Λιβαδάκι","band":4,"modes":"bus","arr":["1"],"off":[0,-0.8]}},{"type":"Feature","geometry":{"type":"Point","coordinates":[22.394022,39.625455]},"properties":{"line":"1","mode":"bus","color":"#0059a9","colorDark":"#00294f","band":4,"off":[0,1.1]}},{"type":"Feature","geometry":{"type":"Point","coordinates":[22.400855,39.622093]},"properties":{"name":"Εργατικές Κατοικίες Νεάπολης","band":4,"modes":"bus","arr":["13"],"off":[0,-0.8]}},{"type":"Feature","geometry":{"type":"Point","coordinates":[22.400855,39.622093]},"properties":{"line":"13","mode":"bus","color":"#0059a9","colorDark":"#00294f","band":4,"off":[0,1.1]}},{"type":"Feature","geometry":{"type":"Point","coordinates":[22.399063,39.624451]},"properties":{"name":"Πλατεία Νεάπολης - Κωνσταντινίδης","band":4,"modes":"bus","arr":["1"],"off":[0,-0.8]}},{"type":"Feature","geometry":{"type":"Point","coordinates":[22.399063,39.624451]},"properties":{"line":"1","mode":"bus","color":"#0059a9","colorDark":"#00294f","band":4,"off":[0,1.1]}},{"type":"Feature","geometry":{"type":"Point","coordinates":[22.416097,39.638779]},"properties":{"name":"Κεντρική Πλατεία Γρ. 7, 10","band":4,"modes":"bus","arr":["1","2","4","7","10","15"],"off":[0,-0.8]}},{"type":"Feature","geometry":{"type":"Point","coordinates":[22.416097,39.638779]},"properties":{"name":"Κεντρική Πλατεία Γρ. 3,4,Β14,15","band":4,"modes":"bus","arr":["1","2","4","7","10","15"],"off":[0,-3]}},{"type":"Feature","geometry":{"type":"Point","coordinates":[22.416097,39.638779]},"properties":{"name":"Κεντρική Πλατεία Γρ. 1,2","band":4,"modes":"bus","arr":["1","2","4","7","10","15"],"off":[0,-5.2]}},{"type":"Feature","geometry":{"type":"Point","coordinates":[22.416097,39.638779]},"properties":{"line":"1","mode":"bus","color":"#0059a9","colorDark":"#00294f","band":4,"off":[-6.8,1.1]}},{"type":"Feature","geometry":{"type":"Point","coordinates":[22.416097,39.638779]},"properties":{"line":"2","mode":"bus","color":"#0059a9","colorDark":"#00294f","band":4,"off":[-3.4,1.1]}},{"type":"Feature","geometry":{"type":"Point","coordinates":[22.416097,39.638779]},"properties":{"line":"4","mode":"bus","color":"#0059a9","colorDark":"#00294f","band":4,"off":[0,1.1]}},{"type":"Feature","geometry":{"type":"Point","coordinates":[22.416097,39.638779]},"properties":{"line":"7","mode":"bus","color":"#0059a9","colorDark":"#00294f","band":4,"off":[3.4,1.1]}},{"type":"Feature","geometry":{"type":"Point","coordinates":[22.416097,39.638779]},"properties":{"line":"10","mode":"bus","color":"#0059a9","colorDark":"#00294f","band":4,"off":[6.8,1.1]}},{"type":"Feature","geometry":{"type":"Point","coordinates":[22.416097,39.638779]},"properties":{"line":"15","mode":"bus","color":"#0059a9","colorDark":"#00294f","band":4,"off":[0,3.1]}},{"type":"Feature","geometry":{"type":"Point","coordinates":[22.420349,39.640015]},"properties":{"name":"Μουσείο","band":4,"modes":"bus","arr":["4"],"off":[0,-0.8]}},{"type":"Feature","geometry":{"type":"Point","coordinates":[22.420349,39.640015]},"properties":{"line":"4","mode":"bus","color":"#0059a9","colorDark":"#00294f","band":4,"off":[0,1.1]}},{"type":"Feature","geometry":{"type":"Point","coordinates":[22.461974,39.628903]},"properties":{"name":"Τέρμα Βόλου","band":4,"modes":"bus","arr":["2"],"off":[0,-0.8]}},{"type":"Feature","geometry":{"type":"Point","coordinates":[22.461974,39.628903]},"properties":{"line":"2","mode":"bus","color":"#0059a9","colorDark":"#00294f","band":4,"off":[0,1.1]}},{"type":"Feature","geometry":{"type":"Point","coordinates":[22.500294,39.631083]},"properties":{"name":"Μελισσοχώρι Πλατεία","band":4,"modes":"bus","arr":["2"],"off":[0,-0.8]}},{"type":"Feature","geometry":{"type":"Point","coordinates":[22.500294,39.631083]},"properties":{"line":"2","mode":"bus","color":"#0059a9","colorDark":"#00294f","band":4,"off":[0,1.1]}},{"type":"Feature","geometry":{"type":"Point","coordinates":[22.501499,39.619942]},"properties":{"name":"Περιφερειακός Σταθμός Νιαβης","band":4,"modes":"bus","arr":["2"],"off":[0,-0.8]}},{"type":"Feature","geometry":{"type":"Point","coordinates":[22.501499,39.619942]},"properties":{"line":"2","mode":"bus","color":"#0059a9","colorDark":"#00294f","band":4,"off":[0,1.1]}},{"type":"Feature","geometry":{"type":"Point","coordinates":[22.418487,39.639683]},"properties":{"name":"Δημοτικό Ωδείο","band":4,"modes":"bus","arr":["14"],"off":[0,-0.8]}},{"type":"Feature","geometry":{"type":"Point","coordinates":[22.418487,39.639683]},"properties":{"line":"14","mode":"bus","color":"#0059a9","colorDark":"#00294f","band":4,"off":[0,1.1]}},{"type":"Feature","geometry":{"type":"Point","coordinates":[22.413244,39.648284]},"properties":{"name":"Συνοικία Παπασταύρου","band":4,"modes":"bus","arr":["3"],"off":[0,-0.8]}},{"type":"Feature","geometry":{"type":"Point","coordinates":[22.413244,39.648284]},"properties":{"line":"3","mode":"bus","color":"#0059a9","colorDark":"#00294f","band":4,"off":[0,1.1]}},{"type":"Feature","geometry":{"type":"Point","coordinates":[22.413369,39.638554]},"properties":{"name":"Πλατεία Εβραίων Φαλάνη-Δασοχωρι","band":4,"modes":"bus","arr":["5","9","11","18"],"off":[0,-0.8]}},{"type":"Feature","geometry":{"type":"Point","coordinates":[22.413369,39.638554]},"properties":{"name":"Πλατεία Εβραίων Για ANIMUS","band":4,"modes":"bus","arr":["5","9","11","18"],"off":[0,-3]}},{"type":"Feature","geometry":{"type":"Point","coordinates":[22.413369,39.638554]},"properties":{"name":"Πλατεία Εβραίων","band":4,"modes":"bus","arr":["5","9","11","18"],"off":[0,-5.2]}},{"type":"Feature","geometry":{"type":"Point","coordinates":[22.413369,39.638554]},"properties":{"line":"5","mode":"bus","color":"#0059a9","colorDark":"#00294f","band":4,"off":[-5.1,1.1]}},{"type":"Feature","geometry":{"type":"Point","coordinates":[22.413369,39.638554]},"properties":{"line":"9","mode":"bus","color":"#0059a9","colorDark":"#00294f","band":4,"off":[-1.7,1.1]}},{"type":"Feature","geometry":{"type":"Point","coordinates":[22.413369,39.638554]},"properties":{"line":"11","mode":"bus","color":"#0059a9","colorDark":"#00294f","band":4,"off":[1.7,1.1]}},{"type":"Feature","geometry":{"type":"Point","coordinates":[22.413369,39.638554]},"properties":{"line":"18","mode":"bus","color":"#0059a9","colorDark":"#00294f","band":4,"off":[5.1,1.1]}},{"type":"Feature","geometry":{"type":"Point","coordinates":[22.437308,39.601234]},"properties":{"name":"Βιοκαρπέτ","band":4,"modes":"bus","arr":["3"],"off":[0,-0.8]}},{"type":"Feature","geometry":{"type":"Point","coordinates":[22.437308,39.601234]},"properties":{"line":"3","mode":"bus","color":"#0059a9","colorDark":"#00294f","band":4,"off":[0,1.1]}},{"type":"Feature","geometry":{"type":"Point","coordinates":[22.435629,39.599829]},"properties":{"name":"PRAKTIKER","band":4,"modes":"bus","arr":["3"],"off":[0,-0.8]}},{"type":"Feature","geometry":{"type":"Point","coordinates":[22.435629,39.599829]},"properties":{"line":"3","mode":"bus","color":"#0059a9","colorDark":"#00294f","band":4,"off":[0,1.1]}},{"type":"Feature","geometry":{"type":"Point","coordinates":[22.422191,39.627134]},"properties":{"name":"Τελωνείο - Παλιό Κοιμητήριο","band":4,"modes":"bus","arr":["60"],"off":[0,-0.8]}},{"type":"Feature","geometry":{"type":"Point","coordinates":[22.422191,39.627134]},"properties":{"line":"60","mode":"bus","color":"#0059a9","colorDark":"#00294f","band":4,"off":[0,1.1]}},{"type":"Feature","geometry":{"type":"Point","coordinates":[22.440896,39.605753]},"properties":{"name":"Fashion City Outlet","band":4,"modes":"bus","arr":["3","15"],"off":[0,-0.8]}},{"type":"Feature","geometry":{"type":"Point","coordinates":[22.440896,39.605753]},"properties":{"line":"3","mode":"bus","color":"#0059a9","colorDark":"#00294f","band":4,"off":[-1.7,1.1]}},{"type":"Feature","geometry":{"type":"Point","coordinates":[22.440896,39.605753]},"properties":{"line":"15","mode":"bus","color":"#0059a9","colorDark":"#00294f","band":4,"off":[1.7,1.1]}},{"type":"Feature","geometry":{"type":"Point","coordinates":[22.431507,39.638513]},"properties":{"name":"Παιδικός Σταθμός Καραγάτση","band":4,"modes":"bus","arr":["4"],"off":[0,-0.8]}},{"type":"Feature","geometry":{"type":"Point","coordinates":[22.431507,39.638513]},"properties":{"line":"4","mode":"bus","color":"#0059a9","colorDark":"#00294f","band":4,"off":[0,1.1]}},{"type":"Feature","geometry":{"type":"Point","coordinates":[22.386004,39.609663]},"properties":{"name":"Πανεπιστημιακό Νοσοκομείο","band":4,"modes":"bus","arr":["4"],"off":[0,-0.8]}},{"type":"Feature","geometry":{"type":"Point","coordinates":[22.386004,39.609663]},"properties":{"line":"4","mode":"bus","color":"#0059a9","colorDark":"#00294f","band":4,"off":[0,1.1]}},{"type":"Feature","geometry":{"type":"Point","coordinates":[22.399394,39.60478]},"properties":{"name":"Νέο Κοιμητήριο","band":4,"modes":"bus","arr":["4"],"off":[0,-0.8]}},{"type":"Feature","geometry":{"type":"Point","coordinates":[22.399394,39.60478]},"properties":{"line":"4","mode":"bus","color":"#0059a9","colorDark":"#00294f","band":4,"off":[0,1.1]}},{"type":"Feature","geometry":{"type":"Point","coordinates":[22.387147,39.61504]},"properties":{"name":"Βιόπολις Σχολή Επιστημών Υγείας","band":4,"modes":"bus","arr":["4"],"off":[0,-0.8]}},{"type":"Feature","geometry":{"type":"Point","coordinates":[22.387147,39.61504]},"properties":{"line":"4","mode":"bus","color":"#0059a9","colorDark":"#00294f","band":4,"off":[0,1.1]}},{"type":"Feature","geometry":{"type":"Point","coordinates":[22.395558,39.721838]},"properties":{"name":"Πλατεία Φαλάνης","band":4,"modes":"bus","arr":["5"],"off":[0,-0.8]}},{"type":"Feature","geometry":{"type":"Point","coordinates":[22.395558,39.721838]},"properties":{"line":"5","mode":"bus","color":"#0059a9","colorDark":"#00294f","band":4,"off":[0,1.1]}},{"type":"Feature","geometry":{"type":"Point","coordinates":[22.403749,39.658736]},"properties":{"name":"S/M Σκλαβενίτης Γιάννουλης","band":4,"modes":"bus","arr":["60"],"off":[0,-0.8]}},{"type":"Feature","geometry":{"type":"Point","coordinates":[22.403749,39.658736]},"properties":{"line":"60","mode":"bus","color":"#0059a9","colorDark":"#00294f","band":4,"off":[0,1.1]}},{"type":"Feature","geometry":{"type":"Point","coordinates":[22.479966,39.676228]},"properties":{"name":"Ομορφοχώρι 3η Στάση","band":4,"modes":"bus","arr":["6"],"off":[0,-0.8]}},{"type":"Feature","geometry":{"type":"Point","coordinates":[22.479966,39.676228]},"properties":{"line":"6","mode":"bus","color":"#0059a9","colorDark":"#00294f","band":4,"off":[0,1.1]}},{"type":"Feature","geometry":{"type":"Point","coordinates":[22.393943,39.665313]},"properties":{"name":"ΕΛΤΑ Γιάννουλης","band":4,"modes":"bus","arr":["7"],"off":[0,-0.8]}},{"type":"Feature","geometry":{"type":"Point","coordinates":[22.393943,39.665313]},"properties":{"line":"7","mode":"bus","color":"#0059a9","colorDark":"#00294f","band":4,"off":[0,1.1]}},{"type":"Feature","geometry":{"type":"Point","coordinates":[22.465012,39.562068]},"properties":{"name":"Πλατεία Νίκαιας","band":4,"modes":"bus","arr":["8"],"off":[0,-0.8]}},{"type":"Feature","geometry":{"type":"Point","coordinates":[22.465012,39.562068]},"properties":{"line":"8","mode":"bus","color":"#0059a9","colorDark":"#00294f","band":4,"off":[0,1.1]}},{"type":"Feature","geometry":{"type":"Point","coordinates":[22.381547,39.62772]},"properties":{"name":"Γαιόπολις","band":4,"modes":"bus","arr":["9","12"],"off":[0,-0.8]}},{"type":"Feature","geometry":{"type":"Point","coordinates":[22.381547,39.62772]},"properties":{"line":"9","mode":"bus","color":"#0059a9","colorDark":"#00294f","band":4,"off":[-1.7,1.1]}},{"type":"Feature","geometry":{"type":"Point","coordinates":[22.381547,39.62772]},"properties":{"line":"12","mode":"bus","color":"#0059a9","colorDark":"#00294f","band":4,"off":[1.7,1.1]}},{"type":"Feature","geometry":{"type":"Point","coordinates":[22.410122,39.617175]},"properties":{"name":"Μουσικό Γυμνάσιο","band":4,"modes":"bus","arr":["10"],"off":[0,-0.8]}},{"type":"Feature","geometry":{"type":"Point","coordinates":[22.410122,39.617175]},"properties":{"line":"10","mode":"bus","color":"#0059a9","colorDark":"#00294f","band":4,"off":[0,1.1]}},{"type":"Feature","geometry":{"type":"Point","coordinates":[22.433121,39.62601]},"properties":{"name":"Πλατεία Τούμπας","band":4,"modes":"bus","arr":["11"],"off":[0,-0.8]}},{"type":"Feature","geometry":{"type":"Point","coordinates":[22.433121,39.62601]},"properties":{"line":"11","mode":"bus","color":"#0059a9","colorDark":"#00294f","band":4,"off":[0,1.1]}},{"type":"Feature","geometry":{"type":"Point","coordinates":[22.400893,39.635946]},"properties":{"name":"ΔΕΥΑΛ","band":4,"modes":"bus","arr":["11","14"],"off":[0,-0.8]}},{"type":"Feature","geometry":{"type":"Point","coordinates":[22.400893,39.635946]},"properties":{"line":"11","mode":"bus","color":"#0059a9","colorDark":"#00294f","band":4,"off":[-1.7,1.1]}},{"type":"Feature","geometry":{"type":"Point","coordinates":[22.400893,39.635946]},"properties":{"line":"14","mode":"bus","color":"#0059a9","colorDark":"#00294f","band":4,"off":[1.7,1.1]}},{"type":"Feature","geometry":{"type":"Point","coordinates":[22.487152,39.772089]},"properties":{"name":"MEDISPES","band":4,"modes":"bus","arr":["13"],"off":[0,-0.8]}},{"type":"Feature","geometry":{"type":"Point","coordinates":[22.487152,39.772089]},"properties":{"line":"13","mode":"bus","color":"#0059a9","colorDark":"#00294f","band":4,"off":[0,1.1]}},{"type":"Feature","geometry":{"type":"Point","coordinates":[22.492031,39.761917]},"properties":{"name":"Καρκανιας-Μπετινα","band":4,"modes":"bus","arr":["13"],"off":[0,-0.8]}},{"type":"Feature","geometry":{"type":"Point","coordinates":[22.492031,39.761917]},"properties":{"line":"13","mode":"bus","color":"#0059a9","colorDark":"#00294f","band":4,"off":[0,1.1]}},{"type":"Feature","geometry":{"type":"Point","coordinates":[22.469864,39.581215]},"properties":{"name":"IKEA","band":4,"modes":"bus","arr":["15"],"off":[0,-0.8]}},{"type":"Feature","geometry":{"type":"Point","coordinates":[22.469864,39.581215]},"properties":{"line":"15","mode":"bus","color":"#0059a9","colorDark":"#00294f","band":4,"off":[0,1.1]}},{"type":"Feature","geometry":{"type":"Point","coordinates":[22.313438,39.629114]},"properties":{"name":"ANIMUS K.A.A.","band":4,"modes":"bus","arr":["16"],"off":[0,-0.8]}},{"type":"Feature","geometry":{"type":"Point","coordinates":[22.313438,39.629114]},"properties":{"line":"16","mode":"bus","color":"#0059a9","colorDark":"#00294f","band":4,"off":[0,1.1]}},{"type":"Feature","geometry":{"type":"Point","coordinates":[22.35114,39.619121]},"properties":{"name":"Πλατεία Τερψιθέας","band":4,"modes":"bus","arr":["18"],"off":[0,-0.8]}},{"type":"Feature","geometry":{"type":"Point","coordinates":[22.35114,39.619121]},"properties":{"line":"18","mode":"bus","color":"#0059a9","colorDark":"#00294f","band":4,"off":[0,1.1]}},{"type":"Feature","geometry":{"type":"Point","coordinates":[22.492699,39.761283]},"properties":{"name":"Μπετινα","band":4,"modes":"bus","arr":["60"],"off":[0,-0.8]}},{"type":"Feature","geometry":{"type":"Point","coordinates":[22.492699,39.761283]},"properties":{"line":"60","mode":"bus","color":"#0059a9","colorDark":"#00294f","band":4,"off":[0,1.1]}}]}