{"type":"FeatureCollection","features":[{"type":"Feature","properties":{"mode":"bus","n":7,"arr":["2","3","4","11","12","13","15"],"lines":"2, 3, 4, 11, 12, 13, 15"},"geometry":{"type":"LineString","coordinates":[[22.420385,39.639084],[22.42036,39.639122],[22.420349,39.639133],[22.420334,39.639139],[22.420317,39.639139],[22.419426,39.639062]]}},{"type":"Feature","properties":{"mode":"bus","n":5,"arr":["2","4","12","13","60"],"lines":"2, 4, 12, 13, 60"},"geometry":{"type":"LineString","coordinates":[[22.420528,39.639178],[22.420531,39.639114],[22.420505,39.639087]]}},{"type":"Feature","properties":{"mode":"bus","n":6,"arr":["3","5","7","13","16","60"],"lines":"3, 5, 7, 13, 16, 60"},"geometry":{"type":"LineString","coordinates":[[22.412313,39.641179],[22.412358,39.641094],[22.412433,39.641063],[22.412482,39.641064],[22.412499,39.641061],[22.412514,39.641053],[22.412538,39.641032],[22.412596,39.640931],[22.412627,39.640679],[22.412766,39.640122],[22.412987,39.63898],[22.413006,39.638831],[22.412953,39.638652],[22.412963,39.638592],[22.413017,39.638522]]}},{"type":"Feature","properties":{"mode":"bus","n":7,"arr":["3","5","7","13","14","16","60"],"lines":"3, 5, 7, 13, 14, 16, 60"},"geometry":{"type":"LineString","coordinates":[[22.412483,39.641293],[22.412425,39.64129]]}},{"type":"Feature","properties":{"mode":"bus","n":12,"arr":["1","2","3","4","5","6","7","8","12","13","16","60"],"lines":"1, 2, 3, 4, 5, 6, 7, 8, 12, 13, 16, 60"},"geometry":{"type":"LineString","coordinates":[[22.419405,39.639695],[22.418839,39.639651]]}},{"type":"Feature","properties":{"mode":"bus","n":7,"arr":["1","2","3","4","5","7","8"],"lines":"1, 2, 3, 4, 5, 7, 8"},"geometry":{"type":"LineString","coordinates":[[22.418839,39.639651],[22.418243,39.639705]]}},{"type":"Feature","properties":{"mode":"bus","n":8,"arr":["1","2","3","4","5","7","8","14"],"lines":"1, 2, 3, 4, 5, 7, 8, 14"},"geometry":{"type":"LineString","coordinates":[[22.418243,39.639705],[22.416483,39.639876],[22.416456,39.639874],[22.416436,39.639864],[22.416422,39.639846],[22.416015,39.638904],[22.416008,39.63878]]}},{"type":"Feature","properties":{"mode":"bus","n":10,"arr":["1","2","3","4","5","7","8","10","11","16"],"lines":"1, 2, 3, 4, 5, 7, 8, 10, 11, 16"},"geometry":{"type":"LineString","coordinates":[[22.416008,39.63878],[22.416145,39.638776]]}},{"type":"Feature","properties":{"mode":"bus","n":11,"arr":["1","2","3","4","5","7","8","10","11","15","16"],"lines":"1, 2, 3, 4, 5, 7, 8, 10, 11, 15, 16"},"geometry":{"type":"LineString","coordinates":[[22.416145,39.638776],[22.416558,39.638812]]}},{"type":"Feature","properties":{"mode":"bus","n":5,"arr":["1","2","4","8","10"],"lines":"1, 2, 4, 8, 10"},"geometry":{"type":"LineString","coordinates":[[22.416558,39.638812],[22.416602,39.638774]]}},{"type":"Feature","properties":{"mode":"bus","n":9,"arr":["1","4","8","9","10","13","16","18","60"],"lines":"1, 4, 8, 9, 10, 13, 16, 18, 60"},"geometry":{"type":"LineString","coordinates":[[22.413175,39.6341],[22.413199,39.631883]]}},{"type":"Feature","properties":{"mode":"bus","n":6,"arr":["1","9","13","16","18","60"],"lines":"1, 9, 13, 16, 18, 60"},"geometry":{"type":"LineString","coordinates":[[22.413199,39.631883],[22.410419,39.632437],[22.407189,39.633135],[22.407162,39.633137],[22.407143,39.633129],[22.40713,39.633111],[22.407075,39.632978],[22.407006,39.632887],[22.406874,39.632816],[22.406725,39.63278],[22.397048,39.63256]]}},{"type":"Feature","properties":{"mode":"bus","n":10,"arr":["1","2","3","4","5","7","10","11","15","16"],"lines":"1, 2, 3, 4, 5, 7, 10, 11, 15, 16"},"geometry":{"type":"LineString","coordinates":[[22.416864,39.638839],[22.416558,39.638812]]}},{"type":"Feature","properties":{"mode":"bus","n":9,"arr":["1","2","3","4","5","7","11","15","16"],"lines":"1, 2, 3, 4, 5, 7, 11, 15, 16"},"geometry":{"type":"LineString","coordinates":[[22.418877,39.639014],[22.416864,39.638839]]}},{"type":"Feature","properties":{"mode":"bus","n":5,"arr":["1","4","10","15","16"],"lines":"1, 4, 10, 15, 16"},"geometry":{"type":"LineString","coordinates":[[22.415229,39.638725],[22.415182,39.634764],[22.415192,39.632573]]}},{"type":"Feature","properties":{"mode":"bus","n":10,"arr":["1","3","4","5","7","10","11","14","15","16"],"lines":"1, 3, 4, 5, 7, 10, 11, 14, 15, 16"},"geometry":{"type":"LineString","coordinates":[[22.415813,39.638766],[22.415229,39.638725]]}},{"type":"Feature","properties":{"mode":"bus","n":9,"arr":["1","3","4","5","7","10","11","14","16"],"lines":"1, 3, 4, 5, 7, 10, 11, 14, 16"},"geometry":{"type":"LineString","coordinates":[[22.415813,39.638766],[22.416008,39.63878]]}},{"type":"Feature","properties":{"mode":"bus","n":10,"arr":["1","2","3","4","5","6","7","11","12","15"],"lines":"1, 2, 3, 4, 5, 6, 7, 11, 12, 15"},"geometry":{"type":"LineString","coordinates":[[22.419115,39.639034],[22.418877,39.639014]]}},{"type":"Feature","properties":{"mode":"bus","n":12,"arr":["1","2","3","4","5","6","7","8","11","12","13","15"],"lines":"1, 2, 3, 4, 5, 6, 7, 8, 11, 12, 13, 15"},"geometry":{"type":"LineString","coordinates":[[22.419426,39.639062],[22.419115,39.639034]]}},{"type":"Feature","properties":{"mode":"bus","n":8,"arr":["1","3","4","5","6","7","8","11"],"lines":"1, 3, 4, 5, 6, 7, 8, 11"},"geometry":{"type":"LineString","coordinates":[[22.419652,39.639237],[22.41955,39.639127],[22.419426,39.639062]]}},{"type":"Feature","properties":{"mode":"bus","n":11,"arr":["1","2","3","4","5","6","7","8","11","13","60"],"lines":"1, 2, 3, 4, 5, 6, 7, 8, 11, 13, 60"},"geometry":{"type":"LineString","coordinates":[[22.419653,39.639515],[22.419652,39.639237]]}},{"type":"Feature","properties":{"mode":"bus","n":6,"arr":["1","2","4","6","7","11"],"lines":"1, 2, 4, 6, 7, 11"},"geometry":{"type":"LineString","coordinates":[[22.419669,39.639545],[22.419653,39.639515]]}},{"type":"Feature","properties":{"mode":"bus","n":5,"arr":["1","2","5","13","60"],"lines":"1, 2, 5, 13, 60"},"geometry":{"type":"LineString","coordinates":[[22.41966,39.639209],[22.419652,39.639237]]}},{"type":"Feature","properties":{"mode":"bus","n":5,"arr":["1","4","8","10","13"],"lines":"1, 4, 8, 10, 13"},"geometry":{"type":"LineString","coordinates":[[22.415181,39.631432],[22.4132,39.631805]]}},{"type":"Feature","properties":{"mode":"bus","n":8,"arr":["2","3","5","7","8","11","13","60"],"lines":"2, 3, 5, 7, 8, 11, 13, 60"},"geometry":{"type":"LineString","coordinates":[[22.419653,39.639515],[22.419579,39.639616],[22.419405,39.639695]]}},{"type":"Feature","properties":{"mode":"bus","n":8,"arr":["3","5","7","9","13","16","18","60"],"lines":"3, 5, 7, 9, 13, 16, 18, 60"},"geometry":{"type":"LineString","coordinates":[[22.413017,39.638522],[22.41308,39.638485]]}},{"type":"Feature","properties":{"mode":"bus","n":5,"arr":["3","5","7","9","16"],"lines":"3, 5, 7, 9, 16"},"geometry":{"type":"LineString","coordinates":[[22.413804,39.638604],[22.413413,39.638583],[22.413209,39.638495],[22.41308,39.638485]]}},{"type":"Feature","properties":{"mode":"bus","n":6,"arr":["3","5","7","9","11","16"],"lines":"3, 5, 7, 9, 11, 16"},"geometry":{"type":"LineString","coordinates":[[22.414536,39.638653],[22.413804,39.638604]]}},{"type":"Feature","properties":{"mode":"bus","n":5,"arr":["3","5","7","11","14"],"lines":"3, 5, 7, 11, 14"},"geometry":{"type":"LineString","coordinates":[[22.415229,39.638725],[22.415097,39.638716]]}},{"type":"Feature","properties":{"mode":"bus","n":5,"arr":["3","8","10","11","15"],"lines":"3, 8, 10, 11, 15"},"geometry":{"type":"LineString","coordinates":[[22.422064,39.627288],[22.421876,39.627469],[22.419505,39.630331],[22.419427,39.630458],[22.419377,39.630622]]}},{"type":"Feature","properties":{"mode":"bus","n":5,"arr":["3","8","10","11","15"],"lines":"3, 8, 10, 11, 15"},"geometry":{"type":"LineString","coordinates":[[22.419462,39.630953],[22.419499,39.630622]]}},{"type":"Feature","properties":{"mode":"bus","n":5,"arr":["3","8","10","15","60"],"lines":"3, 8, 10, 15, 60"},"geometry":{"type":"LineString","coordinates":[[22.423416,39.625661],[22.425268,39.62343],[22.425765,39.62279]]}},{"type":"Feature","properties":{"mode":"bus","n":6,"arr":["3","8","10","11","15","60"],"lines":"3, 8, 10, 11, 15, 60"},"geometry":{"type":"LineString","coordinates":[[22.419499,39.630622],[22.419591,39.630388],[22.421997,39.627438],[22.422064,39.627288],[22.423416,39.625661]]}},{"type":"Feature","properties":{"mode":"bus","n":6,"arr":["3","8","10","11","13","15"],"lines":"3, 8, 10, 11, 13, 15"},"geometry":{"type":"LineString","coordinates":[[22.419415,39.631051],[22.419462,39.630953]]}},{"type":"Feature","properties":{"mode":"bus","n":5,"arr":["9","13","16","18","60"],"lines":"9, 13, 16, 18, 60"},"geometry":{"type":"LineString","coordinates":[[22.41308,39.638485],[22.413131,39.638329],[22.413182,39.635765],[22.413175,39.634129]]}},{"type":"Feature","properties":{"mode":"bus","n":6,"arr":["4","9","13","16","18","60"],"lines":"4, 9, 13, 16, 18, 60"},"geometry":{"type":"LineString","coordinates":[[22.413175,39.634129],[22.413175,39.6341]]}},{"type":"Feature","properties":{"mode":"bus","n":5,"arr":["8","10","12","13","15"],"lines":"8, 10, 12, 13, 15"},"geometry":{"type":"LineString","coordinates":[[22.417962,39.630969],[22.41678,39.631184]]}}]}